LocationType,Location_Name,StNumber,StNumberFraction,StDirection,StName,StSuffix,StSuffixDirection,AddressType,AddressTypeValue,CrossStDirection,CrossStName,CrossStSuffix,CrossStSuffixDirection,City,State,Zip,Website,Phone,CouncilDistrict,X,Y
Parks,La Mirada Park Acquisition Site,5401,,W,La Mirada,Ave,,,,,,,,"Los Angeles, CA 90029
(34.0942, -118.307)",CA,90029,,(310) 548-7675,13,34.094208,-118.306999
Gardens,Drew St,3304,,N,Drew,St,,,,,,,,"Los Angeles, CA 90065
(34.12, -118.243)",CA,90065,,(213) 485-5572,13,34.119958,-118.242682
Parks,Avalon-San Pedro Park,4025,,,Avalon,Blvd,,,,,,,,"Los Angeles, CA 90011
(34.0104, -118.266)",CA,90011,,(310) 548-7675,9,34.010389,-118.265542
Parks,11th Avenue Park,6116,,,11th,Ave,,,,,,,,"Los Angeles, CA 90043
(33.9845, -118.329)",CA,90043,,(310) 548-7675,8,33.984488,-118.329232
Gardens,El Sereno Community Garden,5450,,E,Huntington,Dr,,,,,,,,"Los Angeles, CA 90032
(34.0923, -118.162)",CA,90032,,(213) 485-5572,14,34.092346,-118.161574
Outdoor Fitness Equipment,Gage and Avalon Pocket Park,6301,,S,Avalon,Blvd,,,,,,,,"Los Angeles, CA 90003
(33.9822, -118.265)",CA,90003,,,9,33.982212,-118.265352
Dog Parks,Hermon / Arroyo Seco Dog Park,5566,,,Via Marisol,,,,,,,,,"Los Angeles, CA 90042
(34.1074, -118.185)",CA,90042,http://laparks.org/dos/parks/facility/dogparks/HermonDogPk.htm,(213) 485-5054,14,34.107407,-118.185319
Parks,Imperial Courts Park,2250,,E,114th,St,,,,,,,,"Los Angeles, CA 90059
(33.9313, -118.232)",CA,90059,http://www.laparks.org/dos/reccenter/facility/imperialcourtsRC.htm,(323) 564-1834,15,33.93125654,-118.2324199
Public Computer Centers,Wabash Recreation Center - Public Computer Center,2765,,,Wabash,Ave,,,,,,,,"Los Angeles, CA 90033
(34.0507, -118.198)",CA,90033,http://www.laparks.org/btop/lynda.htm,(323) 262-6534,14,34.05070789,-118.1981928
Tennis Courts,Griffith Park - Vermont Canyon Tennis Courts,2715,,,Vermont,Cyn,,,,,,,,"Los Angeles, CA 90027
(34.121, -118.294)",CA,90027,http://www.laparks.org/dos/sports/tennis/facility/vermontcynTC.htm,(323) 664-3521,4,34.121019,-118.293574
Recreation Centers,James Slauson Recreation Center,5306,,S,Compton,Ave,,,,,,,,"Los Angeles, CA 90011
(33.9942, -118.248)",CA,90011,http://www.laparks.org/dos/reccenter/facility/slausonMC.htm,(323) 233-1174,9,33.994156,-118.247682
Outdoor Fitness Equipment,105th Street Pocket Park,609,,W,105th,St,,,,,,,,"Los Angeles, CA 90044
(33.9409, -118.285)",CA,90044,,(310) 548-7675,8,33.940919,-118.285253
Lakes,Echo Park Lake,751,,,Echo Park,Ave,,,,,,,,"Los Angeles, CA 90026
(34.0724, -118.26)",CA,90026,http://www.laparks.org/dos/aquatic/facility/echoPkLake.htm,(213) 847-8524,13,34.07240833,-118.2600257
Parks,Eagle Rock Hillside Park,,,,N. of Ventura Freeway,,,,,,S. of Valle Vista,,,"Los Angeles, CA 90041
(34.149, -118.202)",CA,90041,http://www.laparks.org/dos/parks/facility/eagleRockHillsidePk.htm,(213) 485-5054,14,34.149007,-118.202226
Parks,Griffith Park - Shane's Inspiration Park,4730,,,Crystal Springs,Dr,,,,,,,,"Los Angeles, CA 90027
(34.1351, -118.285)",CA,90027,http://www.laparks.org/dos/playground/facility/griffithUAPk.htm,(323) 913-4688,4,34.135083,-118.284647
Outdoor Fitness Equipment,Saint Andrews Recreation Center,8701,,,Saint Andrews,Pl,,,,,,,,"Los Angeles, CA 90047
(33.9588, -118.311)",CA,90047,http://www.laparks.org/dos/reccenter/facility/StAndrewsRC.htm,(213) 485-1751,8,33.95882144,-118.3112791
Parks,Seily Rodriguez Park,5707,,,Lexington,Ave,,,,,,,,"Los Angeles, CA 90038
(34.0929, -118.314)",CA,90038,http://www.laparks.org/dos/parks/facility/seilyRodriguezPk.htm,(213) 847-3601,13,34.092917,-118.313975
Outdoor Fitness Equipment,Glassell Park,3650,,,Verdugo,Rd,,,,,,,,"Los Angeles, CA 90065
(34.1167, -118.233)",CA,90065,http://www.laparks.org/dos/parks/facility/glassellPk.htm,(323) 257-1863,1,34.11673874,-118.2331726
Outdoor Fitness Equipment,Gladys Jean Wesson Park,2508,,S,West,Blvd,,,,,,,,"Los Angeles, CA 90016
(34.0338, -118.34)",CA,90016,,,10,34.033847,-118.340309
Parks,Elysian Park -  Avenue of the Palms,,,,Stadium,Way,,,,,,,,"Los Angeles, CA 90012
(34.0795, -118.249)",CA,90012,,(213) 485-5054,13,34.079493,-118.249133
Outdoor Fitness Equipment,Watts Community Park,11300,,S,Monitor,,,,,,,,,"Los Angeles, CA 90059
(33.932, -118.24)",CA,90059,,(310) 548-7675,15,33.932023,-118.240098
Parks,Watts Community Park,11300,,S,Monitor,,,,,,,,,"Los Angeles, CA 90059
(33.932, -118.24)",CA,90059,,(310) 548-7675,15,33.932023,-118.240098
Recreation Centers,Barrington Recreation Center,333,,S,Barrington,Ave,,,,,,,,"Los Angeles, CA 90049
(34.0614, -118.469)",CA,90049,http://www.laparks.org/dos/reccenter/facility/barringtonRC.htm,(310) 476-4866,11,34.06137723,-118.4686951
Recreation Centers,Cheviot Hills Recreation Center,2551,,,Motor,Ave,,,,,,,,"Los Angeles, CA 90064
(34.0469, -118.408)",CA,90064,http://www.laparks.org/dos/reccenter/facility/cheviotHillsRC.htm,(310) 837-5186,5,34.046898,-118.408263
Parks,Julian C. Dixon Ave. Park / 48th Street Park,4800,,S,Hoover,St,,,,,,,,"Los Angeles, CA 90037
(33.9994, -118.287)",CA,90037,http://www.laparks.org/dos/parks/facility/48thStreetPk.htm,(323) 233-4772,9,33.99941769,-118.2869822
Tennis Courts,Algin Sutton Tennis Courts,8800,,S,Hoover,St,,,,,,,,"Los Angeles, CA 90044
(33.9578, -118.286)",CA,90044,http://www.laparks.org/dos/reccenter/facility/alginSuttonRC.htm,(323) 753-5808,8,33.957778,-118.285546
Recreation Centers,Rancho Cienega Sports Complex,5001,,,Rodeo,Rd,,,,,,,,"Los Angeles, CA 90016
(34.0222, -118.352)",CA,90016,http://www.laparks.org/dos/reccenter/facility/ranchocienegaRC.htm,(323) 290-2663,10,34.022242,-118.351645
Parks,Glassell Park,3650,,,Verdugo,Rd,,,,,,,,"Los Angeles, CA 90065
(34.1167, -118.233)",CA,90065,http://www.laparks.org/dos/parks/facility/glassellPk.htm,(323) 257-1863,1,34.11673874,-118.2331726
Parks,Echo Park,1632,,,Bellevue,Ave,,,,,,,,"Los Angeles, CA 90026
(34.0701, -118.261)",CA,90026,http://www.laparks.org/dos/reccenter/facility/echoParkRC.htm,(213) 250-3578,13,34.07012683,-118.2608082
Parks,Fred Roberts Park,4700,,S,Honduras,St,,,,,,,,"Los Angeles, CA 90011
(34.0009, -118.244)",CA,90011,http://www.laparks.org/dos/reccenter/facility/fredRobertsRC.htm,(323) 234-8650,9,34.00087496,-118.2439885
Parks,San Pasqual Park,934,,N,San Pasqual,Ave,,,,,,,,"Los Angeles, CA 90042
(34.1198, -118.17)",CA,90042,http://www.laparks.org/dos/parks/facility/sanPascualPk.htm,(323) 255-0370,14,34.11981,-118.17014
Parks,Lilac Terrace Park,835,,,Academy,Rd,,,,,,,,"Los Angeles, CA 90012
(34.0802, -118.249)",CA,90012,http://www.laparks.org/dos/parks/facility/lilacTerracePk.htm,(213) 847-0926,1,34.080151,-118.249395
Recreation Centers,Crestwood Hills Recreation Center,1000,,,Hanley,Ave,,,,,,,,"Los Angeles, CA 90049
(34.0766, -118.489)",CA,90049,http://www.laparks.org/dos/reccenter/facility/crestwoodHillsRC.htm,(310) 472-5233,11,34.07661042,-118.4889191
Parks,Wabash Park,2765,,,Wabash,Ave,,,,,,,,"Los Angeles, CA 90033
(34.0507, -118.198)",CA,90033,http://www.laparks.org/dos/reccenter/facility/wabashRC.htm,(213) 262-6534,14,34.05070789,-118.1981928
Recreation Centers,Yucca Park Community Center,6671,,,Yucca,St,,,,,,,,"Los Angeles, CA 90028
(34.1033, -118.336)",CA,90028,http://www.laparks.org/dos/reccenter/facility/yuccaCC.htm,(323) 957-6339,13,34.10331572,-118.3355345
Public Computer Centers,Eagle Rock Youth Center - Public Computer Center,1102,,,Eagle Vista,Dr,,,,,,,,"Los Angeles, CA 90041
(34.1436, -118.188)",CA,90041,http://www.laparks.org/btop/lynda.htm,(323) 341-5658,14,34.14363983,-118.1882212
Parks,Griffith Park - Pony & Train Rides,3300,,N,Riverside,Dr,,,,,,,,"Los Angeles, CA 90027
(34.1177, -118.272)",CA,90027,http://www.laparks.org/dos/parks/griffithPK/ponyrides.htm,(323) 664-3266,4,34.117654,-118.27198
Public Computer Centers,James Slauson Recreation Center - Public Computer Center,5306,,S,Compton,Ave,,,,,,,,"Los Angeles, CA 90011
(33.9946, -118.248)",CA,90011,http://www.laparks.org/btop/lynda.htm,(323) 233-1174,9,33.99462127,-118.2476422
Gardens,Solano Canyon Community Garden,835,,,Academy,Rd,,,,,,,,"Los Angeles, CA 90012
(34.0753, -118.232)",CA,90012,http://www.laparks.org/dos/parks/facility/elysianpk.htm,(323) 525-7411,1,34.075292,-118.231559
Recreation Centers,Denker Recreation Center,1550,,W,35th,Pl,,,,,,,,"Los Angeles, CA 90018
(34.0236, -118.305)",CA,90018,http://www.laparks.org/dos/reccenter/facility/denkerRC.htm,(323) 733-8367,8,34.02355276,-118.3045149
Outdoor Fitness Equipment,6th & Gladys Street Park,624,,E,6th,St,,,,,Gladys,St,,"Los Angeles, CA 90021
(34.0403, -118.242)",CA,90021,http://www.laparks.org/dos/parks/facility/6thgladysPk.htm,(818) 756-8189,14,34.04032,-118.242479
Outdoor Fitness Equipment,Westside Neighborhood Park,3085,,,Clyde,Ave,,,,,,,,"Los Angeles, CA 90016
(34.0291, -118.37)",CA,90016,http://www.laparks.org/dos/parks/facility/westsideNeighborhoodPk.htm,(323) 292-6622,10,34.029093,-118.36998
Swimming Pools - Year Round,Van Nuys Sherman Oaks Pool,14201,,,Huston,St,,,,,,,,"Los Angeles, CA 91423
(34.1595, -118.443)",CA,91423,http://www.laparks.org/dos/aquatic/facility/vanNuys_SOPool.htm,(818) 783-6721,4,34.15952933,-118.4425227
Public Computer Centers,Poinsettia Recreation Center - Public Computer Center,7341,,,Willoughy,Ave,,,,,,,,"Los Angeles, CA 90046
(34.0878, -118.35)",CA,90046,http://www.laparks.org/btop/lynda.htm,(323) 876-5014,5,34.087752,-118.350031
Free Wi-Fi Hot Spots,Griffith Observatory,2800,,E,Observatory,Rd,,,,,,,,"Los Angeles, CA 90027
(34.1184, -118.3)",CA,90027,http://griffithobservatory.org/,(213) 473-0800,4,34.118429,-118.300374
Parks,Sullivan Canyon Park,,,,Santa Monica Mountains,,,,,,,,,"Los Angeles, CA 90049
(34.0737, -118.509)",CA,90049,http://www.laparks.org/dos/parks/facility/sullivanCynPk.htm,(310) 840-2187,11,34.073715,-118.509023
Universally Accessible Playgrounds,Westchester Recreation Center,7000,,W,Manchester,Ave,,,,,,,,"Los Angeles, CA 90045
(33.9596, -118.414)",CA,90045,http://www.laparks.org/dos/reccenter/facility/westchesterRC.htm,(310) 670-7473,11,33.95956137,-118.4138213
Skate Parks,Lake Street Skate Park,227,,N,Lake,St,,,,,,,,"Los Angeles, CA 90026
(34.0687, -118.27)",CA,90026,http://www.laparks.org/dos/parks/skateparks/lakeStSkatePk.htm,(213) 207-2196,13,34.06874703,-118.270384
Outdoor Fitness Equipment,Seily Rodriguez Park,5707,,,Lexington,Ave,,,,,,,,"Los Angeles, CA 90038
(34.0929, -118.314)",CA,90038,http://www.laparks.org/dos/parks/facility/seilyRodriguezPk.htm,(213) 847-3601,13,34.092917,-118.313975
Parks,Victory - Vineland Park,11117,,,Victory,Blvd,,,,,,,,"Los Angeles, CA 91606
(34.1869, -118.373)",CA,91606,http://www.laparks.org/dos/parks/facility/victoryVinelandPk.htm,(818) 985-9516,2,34.186926,-118.3727
Parks,Pan Pacific Park,7600,,,Beverly,Blvd,,,,,,,,"Los Angeles, CA 90036
(34.0749, -118.355)",CA,90036,http://www.laparks.org/dos/parks/facility/panPacificPk.htm,(323) 939-8874,4,34.07487935,-118.3549473
Dog Parks,Runyon Canyon Dog Park,2000,,N,Fuller,Ave,,,,,,,,"Los Angeles, CA 90046
(34.1053, -118.349)",CA,90046,http://laparks.org/dos/parks/facility/dogparks/runyonCynDogPk.htm,(323) 666-5046,4,34.10530646,-118.3488732
Parks,76th Street Pocket Park,833,,W,76th,St,,,,,,,,"Los Angeles, CA 90044
(33.971, -118.288)",CA,90044,,(310) 548-7675,8,33.971023,-118.288267
Parks,El Sereno Arroyo Playground,5520,,,Concord,Ave,,,,,,,,"Los Angeles, CA 90032
(34.0798, -118.162)",CA,90032,,(323) 223-2764,14,34.07980496,-118.1618492
Recreation Centers,Montecito Heights Recreation Center,4545,,,Homer,St,,,,,,,,"Los Angeles, CA 90031
(34.0955, -118.203)",CA,90031,http://www.laparks.org/dos/reccenter/facility/montecitoHeightsRC.htm,(213) 485-5148,1,34.095544,-118.20335
Outdoor Fitness Equipment,Evergreen Recreation Center,2844,,E,2nd,St,,,,,,,,"Los Angeles, CA 90033
(34.039, -118.203)",CA,90033,http://www.laparks.org/dos/reccenter/facility/evergreenRC.htm,(323) 262-0397,14,34.038954,-118.203476
Parks,Bellaire Avenue Park,7960,,N,Bellaire,Ave,,,,,,,,"Los Angeles, CA 91605
(34.2156, -118.413)",CA,91605,,(818) 506-7456,2,34.21561,-118.412666
Parks,Evergreen Park,2844,,E,2nd,St,,,,,,,,"Los Angeles, CA 90033
(34.0391, -118.205)",CA,90033,http://www.laparks.org/dos/reccenter/facility/evergreenRC.htm,(323) 262-0397,14,34.03913003,-118.2045264
Skate Parks,Stoner Skate Park,1835,,,Stoner,Ave,,,,,,,,"Los Angeles, CA 90025
(34.0384, -118.453)",CA,90025,http://www.laparks.org/dos/parks/skateparks/stonerSkatePk.htm,(310) 479-7200,11,34.03844736,-118.4532902
Public Computer Centers,Jackie Tatum / Harvard Recreation Center - Public Computer Center,1535,,W,62nd,St,,,,,,,,"Los Angeles, CA 90047
(33.9386, -118.304)",CA,90047,http://www.laparks.org/btop/lynda.htm,(323) 778-2579,8,33.93857,-118.303829
Public Computer Centers,Martin Luther King Jr. Recreation Center - Public Computer Center,3916,,S,Western,Ave,,,,,,,,"Los Angeles, CA 90062
(34.0139, -118.309)",CA,90062,http://www.laparks.org/btop/lynda.htm,(213) 847-0878,8,34.01394464,-118.3087893
Swimming Pools - Summer,Pecan Pool,120,,S,Gless,St,,,,,,,,"Los Angeles, CA 90033
(34.0467, -118.223)",CA,90033,http://www.laparks.org/dos/aquatic/facility/pecanPool.htm,(323) 526-3042,14,34.04674613,-118.222927
Universally Accessible Playgrounds,Orthopaedic Hospital Universal Access Playground,2400,,,Flower,St,,,,,,,,"Los Angeles, CA 90007
(34.028, -118.274)",CA,90007,http://www.laparks.org/dos/playground/facility/orthoUAPk.htm,(310) 548-7675,9,34.027994,-118.273605
Parks,Westwood Park,1350,,S,Sepulveda,Blvd,,,,,,,,"Los Angeles, CA 90025
(34.0533, -118.448)",CA,90025,http://www.laparks.org/dos/reccenter/facility/westwoodRC.htm,(310) 473-3610,5,34.053257,-118.448297
Recreation Centers,Poinsettia Recreation Center,7341,,,Willoughy,Ave,,,,,,,,"Los Angeles, CA 90046
(34.0878, -118.35)",CA,90046,http://www.laparks.org/dos/reccenter/facility/poinsettiaRC.htm,(323) 876-5014,5,34.087752,-118.350031
Parks,Pan Pacific Park - Renee's Place,7600,,,Beverly,Blvd,,,,,,,,"Los Angeles, CA 90036
(34.0749, -118.355)",CA,90036,http://www.laparks.org/dos/playground/facility/panPacificUAPPk.htm,(323) 939-8874,4,34.07487935,-118.3549473
Golf Courses,Rancho Park 3-Par Golf Course,10460,,W,Pico,Blvd,,,,,,,,"Los Angeles, CA 90064
(34.0474, -118.415)",CA,90064,http://golf.lacity.org/cdp_rancho_p3.htm,(310) 838-7561,5,34.04737,-118.414689
Public Computer Centers,Evergreen Youth Center - Public Computer Center,211,,S,Evergreen,Ave,,,,,,,,"Los Angeles, CA 90033
(34.0388, -118.204)",CA,90033,http://www.laparks.org/btop/lynda.htm,(323) 263-2816,14,34.038819,-118.204026
Parks,De Neve Square Park,314,,,Beverly Glen,,,,,,,,,"Los Angeles, CA 90077
(34.0842, -118.435)",CA,90077,http://www.laparks.org/dos/parks/facility/deNeveSquPk.htm,(310) 840-2186,5,34.08425,-118.43496
Tennis Courts,Poinsettia Tennis Courts,7341,,,Willoughy,Ave,,,,,,,,"Los Angeles, CA 90046
(34.0883, -118.349)",CA,90046,http://www.laparks.org/dos/reccenter/facility/poinsettiaRC.htm,(323) 512-8234,5,34.088311,-118.348969
Parks,Mandeville Canyon Park,,,,Mandeville Fire,,,,,,Westridge,,,"Los Angeles, CA 90049
(34.0855, -118.509)",CA,90049,http://www.laparks.org/dos/parks/facility/mandevilleCanyonPk.htm,(310) 589-3200,11,34.085468,-118.509006
Parks,East Los Angeles Park,3160,,E,Minnesota,St,,,,,,,,"Los Angeles, CA 90031
(34.0771, -118.207)",CA,90031,http://www.laparks.org/dos/parks/facility/eastLAPk.htm,(323) 225-3329,1,34.07714,-118.20731
Recreation Centers,Imperial Courts Recreation Center,2250,,E,114th,St,,,,,,,,"Los Angeles, CA 90059
(33.9313, -118.232)",CA,90059,http://www.laparks.org/dos/reccenter/facility/imperialcourtsRC.htm,(323) 564-1834,15,33.93125654,-118.2324199
Parks,Bellevue Park,826,,,Lucille,Ave,,,,,,,,"Los Angeles, CA 90026
(34.084, -118.283)",CA,90026,http://www.laparks.org/dos/reccenter/facility/bellevueRC.htm,(323) 664-2468,13,34.084016,-118.283446
Parks,Glenhurst Park,2932,,,Glenhurst,Ave,,,,,,,,"Los Angeles, CA 90039
(34.1102, -118.253)",CA,90039,http://www.laparks.org/dos/parks/facility/glenhurstPk.htm,(213) 847-0926,13,34.110233,-118.252805
Recreation Centers,El Sereno Recreation Center,4721,,,Klamath,St,,,,,,,,"Los Angeles, CA 90032
(34.0757, -118.182)",CA,90032,http://www.laparks.org/dos/reccenter/facility/elSerenoRC.htm,(323) 225-3517,14,34.075694,-118.1815698
Theatre,Greek Theatre,2700,,N,Vermont,Ave,,,,,,,,"Los Angeles, CA 90027
(34.1197, -118.296)",CA,90027,http://www.laparks.org/dos/parks/griffithPK/greekthtr.htm,(323) 665-5857,4,34.119739,-118.296131
Parks,Robert F. Kennedy Inspiration Park,3400,,W,Wilshire,Blvd,,,,,,,,"Los Angeles, CA 90010
(34.0617, -118.298)",CA,90010,,(213) 485-5572,10,34.06173,-118.297572
Tennis Courts,Griffith Park - Riverside Tennis Courts,3401,,,Riverside,Dr,,,,,,,,"Los Angeles, CA 90027
(34.1163, -118.27)",CA,90027,http://www.laparks.org/dos/sports/tennis/facility/riversideTC.htm,(323) 661-5318,4,34.116327,-118.270274
Recreation Centers,Yosemite Recreation Center,1840,,,Yosemite,Dr,,,,,,,,"Los Angeles, CA 90041
(34.1334, -118.208)",CA,90041,http://www.laparks.org/dos/reccenter/facility/yosemiteRC.htm,(323) 257-1644,14,34.13344093,-118.2080976
Parks,Reynier Park,2803,,S,Reynier,Ave,,,,,,,,"Los Angeles, CA 90035
(34.0356, -118.386)",CA,90035,http://www.laparks.org/dos/parks/facility/reynierPk.htm,(310) 836-1040,10,34.03563676,-118.3861321
Skate Parks,Westchester Skate Park,7000,,W,Manchester,Ave,,,,,,,,"Los Angeles, CA 90045
(33.9591, -118.415)",CA,90045,http://www.laparks.org/dos/parks/skateparks/westchesterSkatePk.htm,(310) 670-7473,11,33.959143,-118.414785
Public Computer Centers,Green Meadows Recreation Center - Public Computer Center,431,,E,89th,St,,,,,,,,"Los Angeles, CA 90003
(33.9557, -118.267)",CA,90003,http://www.laparks.org/btop/lynda.htm,(323) 565-4242,9,33.95568832,-118.2672316
Parks,Lincoln Park,3501,,,Valley,Blvd,,,,,,,,"Los Angeles, CA 90031
(34.0656, -118.202)",CA,90031,http://www.laparks.org/dos/parks/facility/lincolnPk.htm,(213) 847-1726,1,34.06561417,-118.2018369
Parks,Barrington Park,333,,S,Barrington,Ave,,,,,,,,"Los Angeles, CA 90049
(34.0614, -118.469)",CA,90049,http://www.laparks.org/dos/reccenter/facility/barringtonRC.htm,(310) 476-4866,11,34.06137723,-118.4686951
Parks,Seoul International Park,3250,,,San Marino,St,,,,,,,,"Los Angeles, CA 90006
(34.0544, -118.302)",CA,90006,http://www.laparks.org/dos/parks/facility/seoulInterPk.htm,(213) 383-7549,10,34.05435479,-118.3016258
Swimming Pools - Summer,Sun Valley Park Pool,8123,,,Vineland,Ave,,,,,,,,"Los Angeles, CA 91352
(34.2182, -118.37)",CA,91352,http://www.laparks.org/dos/aquatic/facility/sunValleyPool.htm,(818) 252-0835,6,34.21815376,-118.3704284
Swimming Pools - Year Round,Westwood Pool,1350,,S,Sepulveda,Blvd,,,,,,,,"Los Angeles, CA 90025
(34.0533, -118.448)",CA,90025,http://www.laparks.org/dos/aquatic/facility/westwoodPool.htm,(310) 478-7019,5,34.053294,-118.448343
Recreation Centers,Jordan Downs Recreation Center,9900,,,Grape,St,,,,,,,,"Los Angeles, CA 90002
(33.9461, -118.237)",CA,90002,http://www.laparks.org/dos/reccenter/facility/jordanDownsRC.htm,(213) 485-1835,15,33.94612146,-118.2365773
Parks,Sunnynook River Park,3201,,,Riverside,Dr,,,,,,,,"Los Angeles, CA 90027
(34.1134, -118.268)",CA,90027,,,4,34.113439,-118.268482
Recreation Centers,Rose Hill Recreation Center,4530,,,Mercury,Ave,,,,,,,,"Los Angeles, CA 90032
(34.0858, -118.19)",CA,90032,http://www.laparks.org/dos/reccenter/facility/roseHillRC.htm,(323) 225-0450,14,34.08582337,-118.1898844
Public Computer Centers,Trinity Recreation Center - Public Computer Center,517,,,Trinity,St,,,,,,,,"Los Angeles, CA 90011
(34.0239, -118.263)",CA,90011,http://www.laparks.org/btop/lynda.htm,(213) 485-4195,9,34.023914,-118.262876
Golf Courses,Tregnan Golf Academy,4341,,,Griffith Park,Dr,,,,,,,,"Los Angeles, CA 90027
(34.1212, -118.275)",CA,90027,http://www.laparks.org/golf/tregnan.htm,(323) 906-3858,4,34.121156,-118.275261
Universally Accessible Playgrounds,South Park Recreation Center,345,,E,51st,St,,,,,,,,"Los Angeles, CA 90011
(33.9974, -118.268)",CA,90011,http://www.laparks.org/dos/reccenter/facility/southPkRC.htm,(213) 847-6746,9,33.997417,-118.267651
Skate Parks,Lincoln Park Skate Park,3501,,,Valley,Blvd,,,,,,,,"Los Angeles, CA 90031
(34.0656, -118.202)",CA,90031,http://www.laparks.org/dos/parks/skateparks/lincolnParkSkatePk.htm,(213) 847-1726,1,34.06561417,-118.2018369
Parks,Ramon D. Garcia Park,1016,,S,Fresno,St,,,,,,,,"Los Angeles, CA 90023
(34.0276, -118.206)",CA,90023,http://www.laparks.org/dos/reccenter/facility/ramonGarciaRC.htm,(323) 265-4755,14,34.027589,-118.206397
Senior Centers,Fairfax Senior Citizen Center,7929,,,Melrose,Ave,,,,,,,,"Los Angeles, CA 90046
(34.084, -118.362)",CA,90046,http://www.laparks.org/dos/senior/facility/fairfaxSCC.htm,(323) 653-1824,5,34.084022,-118.362491
Public Computer Centers,Vineyard Recreation Center - Public Computer Center,2942,,,Vineyard,Ave,,,,,,,,"Los Angeles, CA 90016
(34.0283, -118.347)",CA,90016,http://www.laparks.org/btop/lynda.htm,(323) 732-2469,10,34.02828057,-118.34653
Recreation Centers,Westwood Recreation Complex,1350,,S,Sepulveda,Blvd,,,,,,,,"Los Angeles, CA 90025
(34.0535, -118.448)",CA,90025,http://www.laparks.org/dos/reccenter/facility/westwoodRC.htm,(310) 473-3610,5,34.053472,-118.44793
Parks,Yucca Park,6671,,,Yucca,St,,,,,,,,"Los Angeles, CA 90028
(34.1033, -118.336)",CA,90028,http://www.laparks.org/dos/parks/facility/yuccaPk.htm,(323) 957-6339,13,34.10331572,-118.3355345
Parks,Crestwood Hills Park,1000,,,Hanley,Ave,,,,,,,,"Los Angeles, CA 90049
(34.0766, -118.489)",CA,90049,http://www.laparks.org/dos/reccenter/facility/crestwoodHillsRC.htm,(310) 472-5233,11,34.07661042,-118.4889191
Public Computer Centers,Felicia Mahood Senior Multipurpose Center - Public Computer Center,11338,,,Santa Monica,Blvd,,,,,,,,"Los Angeles, CA 90025
(34.0456, -118.45)",CA,90025,http://www.laparks.org/btop/lynda.htm,(310) 479-4119,11,34.045637,-118.449914
Recreation Centers,Queen Anne Recreation Center,1240,,,West,Blvd,,,,,,,,"Los Angeles, CA 90019
(34.0504, -118.333)",CA,90019,http://www.laparks.org/dos/reccenter/facility/queenAnneRC.htm,(323) 857-1180,10,34.05036819,-118.3329434
Recreation Centers,Metro/Pacific Municipal Sports,3900,,W,Chevy Chase,Dr,,,,,,,,"Los Angeles, CA 90039
(34.1333, -118.273)",CA,90039,http://www.laparks.org/dos/sports/sports.htm,(818) 246-5613,13,34.13325553,-118.2728568
Parks,Holmby Park,601,,,Club View,Dr,,,,,,,,"Los Angeles, CA 90024
(34.0729, -118.429)",CA,90024,http://www.golf.lacity.org/cdp_holmby.htm,(310) 276-1604,5,34.07294331,-118.4293956
Recreation Centers,Shatto Recreation Center,3191,,W,4th,St,,,,,,,,"Los Angeles, CA 90020
(34.0674, -118.289)",CA,90020,http://www.laparks.org/dos/reccenter/facility/shattoRC.htm,(213) 386-8877,13,34.067447,-118.289338
Parks,Griffith Park - Bronson Canyon,3200,,,Canyon,Dr,,,,,,,,"Los Angeles, CA 90068
(34.1272, -118.311)",CA,90068,http://www.laparks.org/dos/parks/facility/bronsonCanyonGP.htm,(323) 913-4688,4,34.127171,-118.31077
Parks,Hazard Park,2230,,,Norfolk,St,,,,,,,,"Los Angeles, CA 90033
(34.0607, -118.201)",CA,90033,http://www.laparks.org/dos/parks/facility/hazardPk.htm,(213) 485-6839,14,34.06067723,-118.2008547
Public Computer Centers,Ramona Gardens Recreation Center - Public Computer Center,2830,,,Lancaster,Ave,,,,,,,,"Los Angeles, CA 90033
(34.057, -118.195)",CA,90033,http://www.laparks.org/btop/lynda.htm,(213) 847-2961,14,34.056954,-118.194894
Camps,Griffith Park Boys Camp,4730,,,Crystal Springs,Dr,,,,,,,,"Los Angeles, CA 90027
(34.139, -118.298)",CA,90027,http://www.laparks.org/dos/camps/griffith.htm,(323) 664-0571,4,34.139017,-118.298335
Parks,Greayer's Oak Mini Park,3711,,N,Figueroa,St,,,,,,,,"Los Angeles, CA 90065
(34.0902, -118.212)",CA,90065,http://www.laparks.org/dos/parks/facility/graeyorsOakPk.htm,(323) 255-0370,1,34.09023935,-118.2124151
Parks,Briarwood Park,461,,,Almaden,Ct,,,,,,,,"Los Angeles, CA 90077
(34.119, -118.444)",CA,90077,http://www.laparks.org/dos/parks/facility/briarwoodPk.htm,(310) 840-2186,5,34.119035,-118.443947
Tennis Courts,Sycamore Grove Tennis Courts,4702,,N,Figueroa,St,,,,,,,,"Los Angeles, CA 90042
(34.1015, -118.201)",CA,90042,http://www.laparks.org/dos/parks/facility/sycamorePk.htm,(323) 255-0370,1,34.101465,-118.201347
Parks,Media Park,,,,Culver,Blvd,,,,,Venice,Blvd,,"Los Angeles, CA 90232
(34.0265, -118.393)",CA,90232,http://www.laparks.org/dos/parks/facility/mediaPk.htm,(310) 836-1040,5,34.02647,-118.39306
Parks,De Longpre Park,1350,,N,Cherokee,Ave,,,,,,,,"Los Angeles, CA 90028
(34.0959, -118.335)",CA,90028,http://www.laparks.org/dos/parks/facility/deLongprePk.htm,(213) 847-3599,4,34.095934,-118.334692
Parks,Vista Hermosa Park,100,,N,Toluca,St,,,,,,,,"Los Angeles, CA 90026
(34.062, -118.258)",CA,90026,http://www.laparks.org/dos/parks/facility/vistaHermosaPk.htm,(213) 250-3578,1,34.06195635,-118.2582994
Swimming Pools - Summer,Lou Costello (Hostetter) Pool,3121,,E,Olympic,Blvd,,,,,,,,"Los Angeles, CA 90023
(34.0206, -118.211)",CA,90023,http://www.laparks.org/dos/aquatic/facility/costelloPool.htm,(323) 526-3073,14,34.020645,-118.211359
Universally Accessible Playgrounds,Hazard Recreation Center,2230,,,Norfolk,St,,,,,,,,"Los Angeles, CA 90033
(34.0603, -118.201)",CA,90033,http://www.laparks.org/dos/reccenter/facility/hazardRC.htm,(213) 485-6839,14,34.060295,-118.200702
Swimming Pools - Summer,Stoner Park Pool,1835,,,Stoner,Ave,,,,,,,,"Los Angeles, CA 90025
(34.0384, -118.453)",CA,90025,http://www.laparks.org/dos/aquatic/facility/stonerParkPool.htm,(310) 575-8286,11,34.03844736,-118.4532902
Recreation Centers,Gilbert W. Lindsay Recreation Center,429,,E,42nd,Pl,,,,,,,,"Los Angeles, CA 90011
(34.0066, -118.268)",CA,90011,http://www.laparks.org/dos/reccenter/facility/gilbertLindsayRC.htm,(323) 846-7584,9,34.00661929,-118.2677641
Recreation Centers,Chevy Chase Recreation Center,4165,,,Chevy Chase,Dr,,,,,,,,"Los Angeles, CA 90039
(34.1334, -118.267)",CA,90039,http://www.laparks.org/dos/reccenter/facility/chevyChaseRC.htm,(213) 485-4867,13,34.133432,-118.266546
Parks,Jim Gilliam Park,4000,,S,La Brea,Ave,,,,,,,,"Los Angeles, CA 90008
(34.0119, -118.352)",CA,90008,http://www.laparks.org/dos/reccenter/facility/jimGilliamRC.htm,(323) 291-5928,10,34.011922,-118.351674
Museums,Griffith Park - Travel Town Museum,5200,,,Zoo,Dr,,,,,,,,"Los Angeles, CA 90027
(34.1538, -118.309)",CA,90027,http://www.laparks.org/grifmet/tt/index.htm,(323) 662-5874,4,34.153834,-118.308641
Outdoor Fitness Equipment,West Adams Heights Park,1903,,,Cordova,St,,,,,,,,"Los Angeles, CA 90007
(34.0388, -118.3)",CA,90007,,,10,34.03883,-118.300475
Parks,Chevy Chase Park,4165,,,Chevy Chase,Dr,,,,,,,,"Los Angeles, CA 90039
(34.1335, -118.267)",CA,90039,http://www.laparks.org/dos/parks/facility/chevyChasePk.htm,(213) 485-4867,13,34.133531,-118.2667127
Free Wi-Fi Hot Spots,Echo Park Recreation Center,1632,,,Bellevue,Ave,,,,,,,,"Los Angeles, CA 90026
(34.0698, -118.26)",CA,90026,http://www.laparks.org/dos/reccenter/facility/echoParkRC.htm,(213) 250-3578,13,34.069801,-118.260119
Recreation Centers,Pecan Recreation Center,127,,S,Pecan,St,,,,,,,,"Los Angeles, CA 90033
(34.0465, -118.222)",CA,90033,http://www.laparks.org/dos/reccenter/facility/pecanRC.htm,(323) 262-2736,14,34.04652101,-118.2220261
Outdoor Fitness Equipment,Hollenbeck Park,415,,S,Saint Louis,St,,,,,,,,"Los Angeles, CA 90033
(34.0414, -118.216)",CA,90033,http://www.laparks.org/dos/parks/facility/hollenbeckPk.htm,(323) 261-0113,14,34.04136456,-118.2160944
Parks,Elysian Park - Montecillo De Leo Politi,,,,Stadium,Way,,,,,Academy,Rd,,"Los Angeles, CA 90012
(34.0784, -118.247)",CA,90012,http://www.laparks.org/dos/parks/facility/montecilloDeLeoPolitiPk.htm,(213) 485-5054,13,34.078382,-118.246633
Tennis Courts,Saint Andrews Tennis Courts,8701,,,Saint Andrews,Pl,,,,,,,,"Los Angeles, CA 90047
(33.9597, -118.311)",CA,90047,http://www.laparks.org/dos/reccenter/facility/stAndrewsRC.htm,(213) 485-1751,8,33.95973995,-118.3114526
Parks,Eagle Rock Park,1100,,,Eagle Vista,Dr,,,,,,,,"Los Angeles, CA 90041
(34.143, -118.188)",CA,90041,http://www.laparks.org/dos/reccenter/facility/eagleRockRC.htm,(323) 257-6948,14,34.142988,-118.18805
Skate Parks,Imperial Courts Skate Park,2250,,E,114th,St,,,,,,,,"Los Angeles, CA 90059
(33.9313, -118.232)",CA,90059,http://www.laparks.org/dos/parks/skateparks/imperialCourtsSkatePk.htm,(323) 564-1834,15,33.93125654,-118.2324199
Public Computer Centers,Lincoln Park Recreation Center - Public Computer Center,3501,,,Valley,Blvd,,,,,,,,"Los Angeles, CA 90031
(34.0661, -118.199)",CA,90031,http://www.laparks.org/btop/lynda.htm,(213) 847-1726,1,34.0661,-118.199196
Public Computer Centers,Denker Recreation Center - Public Computer Center,1550,,W,35th,Pl,,,,,,,,"Los Angeles, CA 90018
(34.0236, -118.305)",CA,90018,http://www.laparks.org/btop/lynda.htm,(323) 733-8367,8,34.02355276,-118.3045149
Recreation Centers,Ross Snyder Recreation Center,1501,,E,41st,St,,,,,,,,"Los Angeles, CA 90011
(34.0087, -118.247)",CA,90011,http://www.laparks.org/dos/reccenter/facility/rossSnyderRC.htm,(323) 231-3964,9,34.00871681,-118.2473934
Skate Parks,Hollenbeck Safe Spot Skate Spot,415,,S,Saint Louis,St,,,,,,,,"Los Angeles, CA 90033
(34.0414, -118.216)",CA,90033,http://www.laparks.org/dos/parks/skateparks/hollenbeckSkatePk.htm,(323) 261-0113,14,34.04136456,-118.2160944
Public Computer Centers,Lemon Grove Recreation Center - Public Computer Center,4959,,,Lemon Grove,Ave,,,,,,,,"Los Angeles, CA 90029
(34.0863, -118.305)",CA,90029,http://www.laparks.org/btop/lynda.htm,(323) 666-4144,13,34.08634611,-118.3046676
Parks,Yosemite Park,1840,,,Yosemite,Dr,,,,,,,,"Los Angeles, CA 90041
(34.1337, -118.208)",CA,90041,http://www.laparks.org/dos/reccenter/facility/yosemiteRC.htm,(323) 257-1644,14,34.133742,-118.20819
Outdoor Fitness Equipment,Hoover Recreation Center,1010,,W,25th,St,,,,,,,,"Los Angeles, CA 90007
(34.0327, -118.283)",CA,90007,http://www.laparks.org/dos/reccenter/facility/hooverRC.htm,(213) 749-8896,1,34.03273559,-118.2830944
Golf Courses,Harding Golf Course,4730,,,Crystal Springs,Dr,,,,,,,,"Los Angeles, CA 90027
(34.1445, -118.289)",CA,90027,http://golf.lacity.org/cdp_harding.htm,(323) 663-2555,4,34.144505,-118.289258
Parks,Chesterfield Square Park,1950,,W,54th,St,,,,,,,,"Los Angeles, CA 90062
(33.9931, -118.313)",CA,90062,http://www.laparks.org/dos/parks/facility/chesterfieldSquPk.htm,(323) 233-4772,8,33.99308909,-118.3129281
Recreation Centers,Cypress Recreation Center,2630,,,Pepper,Ave,,,,,,,,"Los Angeles, CA 90065
(34.0894, -118.226)",CA,90065,http://www.laparks.org/dos/reccenter/facility/cypressRC.htm,(213) 485-5384,1,34.0894357,-118.2255846
Hiking Trails,Jim Gilliam Park,4000,,S,La Brea,Ave,,,,,,,,"Los Angeles, CA 90008
(34.0119, -118.352)",CA,90008,http://www.laparks.org/dos/reccenter/facility/jimGilliamRC.htm,(323) 291-5928,10,34.011922,-118.351674
Parks,111th Place Pocket Park,207,,E,111th,Pl,,,,,,,,"Los Angeles, CA 90061
(33.9342, -118.271)",CA,90061,,(310) 548-7675,8,33.934202,-118.271246
Recreation Centers,Echo Park Recreation Center,1632,,,Bellevue,Ave,,,,,,,,"Los Angeles, CA 90026
(34.0698, -118.26)",CA,90026,http://www.laparks.org/dos/reccenter/facility/echoParkRC.htm,(213) 250-3578,13,34.069801,-118.260119
Parks,Circle / Gramercy Park,1975,,W,76th,St,,,,,,,,"Los Angeles, CA 90047
(33.971, -118.313)",CA,90047,http://www.laparks.org/dos/parks/facility/circlePk.htm,(310) 548-7675,8,33.970976,-118.313323
Outdoor Fitness Equipment,Fox & Laurel Park,14353,,,Fox,St,,,,,,,,"Los Angeles, CA 91340
(34.2716, -118.446)",CA,91340,,,7,34.271638,-118.446271
Swimming Pools - Summer,Jackie Tatum / Harvard Pool,6120,,,Denker,St,,,,,,,,"Los Angeles, CA 90047
(33.9836, -118.305)",CA,90047,http://www.laparks.org/dos/aquatic/facility/harvardPool.htm,(323) 753-2197,8,33.98355979,-118.3046124
Parks,Rancho Cienega Park,5001,,,Rodeo,Rd,,,,,,,,"Los Angeles, CA 90016
(34.0217, -118.352)",CA,90016,http://www.laparks.org/dos/reccenter/facility/ranchocienegaRC.htm,(323) 290-2330,10,34.02167021,-118.351823
Tennis Courts,Westwood Tennis Courts,1350,,S,Sepulveda,Blvd,,,,,,,,"Los Angeles, CA 90024
(34.0534, -118.449)",CA,90024,http://www.laparks.org/dos/sports/tennis/facility/westwoodTC.htm,(310) 575-8299,5,34.053422,-118.449
Public Computer Centers,Ramon D. Garcia Msgr. Recreation Center - Public Computer Center,1016,,S,Fresno,St,,,,,,,,"Los Angeles, CA 90023
(34.0275, -118.207)",CA,90023,http://www.laparks.org/btop/lynda.htm,(323) 265-4755,14,34.027534,-118.206502
Tennis Courts,Ross Snyder Tennis Courts,1501,,E,41st,St,,,,,,,,"Los Angeles, CA 90011
(34.0087, -118.247)",CA,90011,http://www.laparks.org/dos/reccenter/facility/rossSnyderRC.htm,(323) 231-3964,9,34.00871681,-118.2473934
Outdoor Fitness Equipment,MacArthur Park,2230,,W,6th,St,,,,,,,,"Los Angeles, CA 90057
(34.0604, -118.277)",CA,90057,http://www.laparks.org/dos/parks/facility/macArthurPk.htm,(213) 368-0520,1,34.06035058,-118.2770864
Parks,Denker and Torrance Pocket Park,1490,,W,Torrance,Blvd,,,,,,,,"Los Angeles, CA 90501
(33.8416, -118.304)",CA,90501,,(310) 548-7675,15,33.84162,-118.303546
Parks,Hope and Peace Park,843,,S,Bonnie Brae,St,,,,,,,,"Los Angeles, CA 90057
(34.0528, -118.276)",CA,90057,http://www.laparks.org/dos/parks/facility/hopePeacePocketPk.htm,(213) 747-1872,1,34.05276205,-118.2764751
Parks,Queen Anne Park,1240,,,West,Blvd,,,,,,,,"Los Angeles, CA 90016
(34.0507, -118.333)",CA,90016,http://www.laparks.org/dos/reccenter/facility/queenAnneRC.htm,(323) 857-1180,10,34.0507319,-118.33286
Swimming Pools - Year Round,Roosevelt High School Pool,456,,S,Mathews,St,,,,,,,,"Los Angeles, CA 90033
(34.0386, -118.212)",CA,90033,http://www.laparks.org/dos/aquatic/facility/rooseveltPool.htm,(213) 485-7391,14,34.03862927,-118.2115056
Senior Centers,Highland Adult Center,6152,,N,Figueroa,St,,,,,,,,"Los Angeles, CA 90042
(34.1139, -118.186)",CA,90042,http://www.laparks.org/dos/senior/facility/highlandParkSCC.htm,(323) 256-6866,14,34.11389422,-118.1857243
Skate Parks,El Sereno Skate Park,4721,,,Klamath,St,,,,,,,,"Los Angeles, CA 90032
(34.0757, -118.182)",CA,90032,http://www.laparks.org/dos/parks/skateparks/elSerenoSkatePk.htm,(323) 225-3517,14,34.075694,-118.1815698
Senior Centers,El Sereno Senior Citizen Center,4818,,,Klamath,Pl,,,,,,,,"Los Angeles, CA 90032
(34.075, -118.18)",CA,90032,http://www.laparks.org/dos/senior/facility/elSerenoSCC.htm,(323) 222-2040,14,34.075035,-118.179899
Outdoor Fitness Equipment,Lemon Grove Park,4959,,,Lemon Grove,Ave,,,,,,,,"Los Angeles, CA 90029
(34.0863, -118.305)",CA,90029,http://www.laparks.org/dos/reccenter/facility/lemonGroveRC.htm,(323) 666-4144,13,34.08634611,-118.3046676
Parks,Griffith Park Visitor Center Auditorium,4730,,,Crystal Springs,Dr,,,,,,,,"Los Angeles, CA 90027
(34.1325, -118.28)",CA,90027,http://www.laparks.org/dos/ranger/auditorium.htm,(323) 665-1154,4,34.132522,-118.280284
Museums,Griffith Park - Autry Museum of Western Heritage,4700,,,Western Heritage,Dr,,,,,,,,"Los Angeles, CA 90027
(34.1487, -118.282)",CA,90027,http://disclaimer.lacity.org/disclaim.cfm?goto=http://www.autrynationalcenter.org,(323) 667-2000,4,34.148715,-118.282023
Recreation Centers,Seoul International Recreation Center,3250,,,San Marino,St,,,,,,,,"Los Angeles, CA 90006
(34.0544, -118.302)",CA,90006,http://www.laparks.org/dos/reccenter/facility/seoulInterRC.htm,(213) 383-7549,10,34.05435479,-118.3016258
Public Computer Centers,Yucca Park Community Center - Public Computer Center,6671,,,Yucca,St,,,,,,,,"Los Angeles, CA 90028
(34.1033, -118.336)",CA,90028,http://www.laparks.org/btop/lynda.htm,(323) 957-6339,13,34.10331572,-118.3355345
Parks,Jackie Tatum / Harvard Park,1535,,W,62nd,St,,,,,,,,"Los Angeles, CA 90047
(33.9833, -118.304)",CA,90047,http://www.laparks.org/dos/reccenter/facility/jackieTatumRC.htm,(323) 778-2579,8,33.98334823,-118.303593
Senior Centers,Montecito Heights Senior Citizen Center,4545,,,Homer,St,,,,,,,,"Los Angeles, CA 90031
(34.0959, -118.203)",CA,90031,http://www.laparks.org/dos/senior/facility/montecitoHeightsSCC.htm,(213) 485-8550,1,34.095856,-118.202986
Parks,South Victoria Ave Park,6537,,S,Victoria,Ave,,,,,,,,"Los Angeles, CA 90043
(33.9794, -118.332)",CA,90043,,(310) 548-7675,8,33.979427,-118.332474
Parks,William Nickerson Gardens Park,11251,,,Compton,Ave,,,,,,,,"Los Angeles, CA 90059
(33.9322, -118.247)",CA,90059,http://www.laparks.org/dos/reccenter/facility/williamNickersonRC.htm,(323) 566-1416,15,33.932182,-118.246727
Tennis Courts,Loren Miller Tennis Courts,2717,,,Halldale,Ave,,,,,,,,"Los Angeles, CA 90018
(34.0305, -118.304)",CA,90018,http://www.laparks.org/dos/reccenter/facility/lorenMillerRC.htm,(323) 734-1302,8,34.030545,-118.303731
Outdoor Fitness Equipment,Van Ness Park,5720,,,2nd,Ave,,,,,,,,"Los Angeles, CA 90043
(33.9908, -118.319)",CA,90043,http://www.laparks.org/dos/reccenter/facility/vanNessRC.htm,(323) 296-1559,8,33.99082417,-118.319119
Parks,Benny H. Potter West Adams Avenues Memorial Park,2413,,,2nd,Ave,,,,,,,,"Los Angeles, CA 90018
(34.035, -118.319)",CA,90018,http://www.laparks.org/dos/parks/facility/bennyHPotterPk.htm,(323) 373-9483,10,34.035039,-118.318677
Parks,Irving Schachter Park,2599,,,Beverwil,Dr,,,,,Beverlywood,,,"Los Angeles, CA 90064
(34.04, -118.399)",CA,90064,http://www.laparks.org/dos/parks/facility/irvingSchachterPk.htm,(310) 840-2186,5,34.040044,-118.398926
Parks,Greayer's Oak Park,3711,,N,Figueroa,St,,,,,,,,"Los Angeles, CA 90065
(34.0906, -118.212)",CA,90065,,(310) 548-7675,1,34.09059,-118.212182
Parks,Griffith Park - Old Zoo Picnic Area,,,,Griffith Park,Dr,,,,,Crystal Springs,Dr,,"Los Angeles, CA 90027
(34.1355, -118.286)",CA,90027,http://www.laparks.org/dos/parks/facility/griffithPk.htm,(323) 644-2050,4,34.135456,-118.286337
Parks,Hollywood Park,1122,,,Cole,Ave,,,,,,,,"Los Angeles, CA 90038
(34.0913, -118.33)",CA,90038,http://www.laparks.org/dos/reccenter/facility/hollywoodRC.htm,(323) 467-6847,13,34.09132457,-118.3297572
Tennis Courts,Mar Vista Tennis Courts,11430,,,Woodbine,Ave,,,,,,,,"Los Angeles, CA 90066
(34.0179, -118.429)",CA,90066,http://www.laparks.org/dos/reccenter/facility/marVistaRC.htm,(310) 398-5982,11,34.01785493,-118.4294632
Parks,Watts Cultural Crescent,1780,,E,Santa Ana,Blvd,,,,,,,,"Los Angeles, CA 90059
(33.94, -118.242)",CA,90059,,(310) 548-7675,15,33.940048,-118.242452
Parks,4600 Orchard Ave Pocket Park,4600,,,Orchard,Ave,,,,,,,,"Los Angeles, CA 90037
(34.0016, -118.289)",CA,90037,,(310) 548-7675,9,34.001558,-118.288625
Outdoor Fitness Equipment,Hermon / Arroyo Seco Park,5566,,,Via Marisol,,,,,,,,,"Los Angeles, CA 90042
(34.1044, -118.187)",CA,90042,http://www.laparks.org/dos/parks/facility/arroyoSPk.htm,(213) 485-5054,14,34.104402,-118.187327
Parks,Westside Neighborhood Park,3085,,,Clyde,Ave,,,,,,,,"Los Angeles, CA 90016
(34.0291, -118.37)",CA,90016,http://www.laparks.org/dos/parks/facility/westsideNeighborhoodPk.htm,(323) 292-6622,10,34.029093,-118.36998
Outdoor Fitness Equipment,Trinity Park,517,,E,25th,St,,,,,,,,"Los Angeles, CA 90011
(34.0239, -118.263)",CA,90011,http://www.laparks.org/dos/reccenter/facility/trinityRC.htm,(213) 485-4195,9,34.02385032,-118.2634554
Parks,Grigsby Pocket Park,1816,,E,115th,St,,,,,,,,"Los Angeles, CA 90059
(33.9302, -118.24)",CA,90059,,(310) 548-7675,15,33.930249,-118.240227
Outdoor Fitness Equipment,4600 Orchard Ave Pocket Park,4600,,,Orchard,Ave,,,,,,,,"Los Angeles, CA 90037
(34.0016, -118.289)",CA,90037,,(310) 548-7675,9,34.001558,-118.288625
Parks,Cypress Park Library,3320,,E,Pepper,Ave,,,,,,,,"Los Angeles, CA 90065
(34.091, -118.223)",CA,90065,,(310) 548-7675,1,34.091029,-118.22264
Museums,Heritage Square Museum,3800,,,Homer,St,,,,,,,,"Los Angeles, CA 90031
(34.0885, -118.208)",CA,90031,http://www.lacity.org/disclaim/disclaim.cfm?goto=http://www.heritagesquare.org,(323) 225-2700,1,34.088502,-118.208039
Outdoor Fitness Equipment,South Park,345,,E,51st,St,,,,,,,,"Los Angeles, CA 90011
(33.9966, -118.269)",CA,90011,http://www.laparks.org/dos/reccenter/facility/southPkRC.htm,(213) 847-6746,9,33.99664406,-118.268573
Parks,Westwood Gardens Park,1246,,S,Glendon,Ave,,,,,,,,"Los Angeles, CA 90024
(34.0575, -118.442)",CA,90024,,(310) 836-1040,5,34.057518,-118.441597
Parks,97th Street Pocket Park,554,,W,97th,St,,,,,,,,"Los Angeles, CA 90010
(33.948, -118.285)",CA,90010,,(310) 548-7675,8,33.948036,-118.2847
Outdoor Fitness Equipment,Griffith Park - Park Center,4730,,,Crystal Springs,Dr,,,,,,,,"Los Angeles, CA 90027
(34.1342, -118.283)",CA,90027,http://www.laparks.org/dos/parks/facility/parkCenter.htm,(323) 644-2050,4,34.134213,-118.282994
Universally Accessible Playgrounds,Westwood Park - Aidan's Place,1350,,S,Sepulveda,Blvd,,,,,,,,"Los Angeles, CA 90025
(34.0527, -118.448)",CA,90025,http://www.laparks.org/dos/playground/facility/westwoodUAPRC.htm,(310) 473-3610,5,34.052676,-118.448107
Parks,Lake Street Park,227,,N,Lake,St,,,,,,,,"Los Angeles, CA 90057
(34.0687, -118.27)",CA,90057,http://www.laparks.org/dos/parks/facility/lakeStPk.htm,(213) 207-2196,13,34.06874703,-118.270384
Recreation Centers,Hoover Recreation Center,1010,,W,25th,St,,,,,,,,"Los Angeles, CA 90007
(34.0327, -118.283)",CA,90007,http://www.laparks.org/dos/reccenter/facility/hooverRC.htm,(213) 749-8896,1,34.03273559,-118.2830944
Public Computer Centers,Central Park Recreation Center - Public Computer Center,1357,,E,22nd,St,,,,,,,,"Los Angeles, CA 90011
(34.0208, -118.251)",CA,90011,http://www.laparks.org/btop/lynda.htm,(213) 485-4435,9,34.020754,-118.251107
Parks,6th & Gladys Street Park,624,,E,6th,St,,,,,Gladys,St,,"Los Angeles, CA 90021
(34.0403, -118.242)",CA,90021,http://www.laparks.org/dos/parks/facility/6thgladysPk.htm,(818) 756-8189,14,34.04032,-118.242479
Recreation Centers,Silver Lake Recreation Center,1850,,W,Silver Lake,Dr,,,,,,,,"Los Angeles, CA 90026
(34.0925, -118.267)",CA,90026,http://www.laparks.org/dos/reccenter/facility/silverLakeRC.htm,(323) 644-3946,13,34.09250232,-118.2668935
Parks,Lanark/Shelby Mini-Park,,,,Lanark,St,,,,,Shelby,St,,"Los Angeles, CA 90041
(34.1353, -118.188)",CA,90041,http://www.laparks.org/dos/parks/facility/lanarkShelbyPk.htm,(323) 255-0370,14,34.135325,-118.187511
Outdoor Fitness Equipment,State Street Recreation Center,716,,N,State,St,,,,,,,,"Los Angeles, CA 90033
(34.0531, -118.213)",CA,90033,http://www.laparks.org/dos/reccenter/facility/stateStreetRC.htm,(213) 847-2790,14,34.053064,-118.212879
Parks,Mount Carmel Park,830,,W,70th,St,,,,,,,,"Los Angeles, CA 90044
(33.9762, -118.288)",CA,90044,http://www.laparks.org/dos/parks/facility/mountCarmelPk.htm,(323) 789-2756,8,33.97624967,-118.2884111
Swimming Pools - Summer,Ross Snyder Pool,1501,,E,41st,St,,,,,,,,"Los Angeles, CA 90011
(34.0087, -118.247)",CA,90011,http://www.laparks.org/dos/aquatic/facility/rossSnyderPool.htm,(213) 847-3430,9,34.00871681,-118.2473934
Public Computer Centers,Mount Carmel Recreation Center - Public Computer Center,830,,W,70th,St,,,,,,,,"Los Angeles, CA 90044
(33.976, -118.288)",CA,90044,http://www.laparks.org/btop/lynda.htm,(323) 789-2756,8,33.975985,-118.28763
Parks,Palms Park,2950,,,Overland,Ave,,,,,,,,"Los Angeles, CA 90064
(34.0329, -118.418)",CA,90064,http://www.laparks.org/dos/reccenter/facility/palmsRC.htm,(310) 838-3838,5,34.03286932,-118.4177271
Recreation Centers,Wabash Recreation Center,2765,,,Wabash,Ave,,,,,,,,"Los Angeles, CA 90033
(34.0507, -118.198)",CA,90033,http://www.laparks.org/dos/reccenter/facility/wabashRC.htm,(323) 262-6534,14,34.05070789,-118.1981928
Tennis Courts,Griffith Park - Park Drive Tennis Courts,4669,,,Crystal Springs,Dr,,,,,,,,"Los Angeles, CA 90027
(34.1331, -118.283)",CA,90027,http://www.laparks.org/dos/parks/griffithpk/tennis.htm,(323) 913-4688,4,34.133139,-118.282567
Parks,Denker Park,1550,,W,35th,Pl,,,,,,,,"Los Angeles, CA 90018
(34.0236, -118.305)",CA,90018,http://www.laparks.org/dos/reccenter/facility/denkerRC.htm,(323) 733-8367,8,34.02355276,-118.3045149
Universally Accessible Playgrounds,Stoner Park,1835,,,Stoner,Ave,,,,,,,,"Los Angeles, CA 90025
(34.0384, -118.453)",CA,90025,http://www.laparks.org/dos/reccenter/facility/stonerRC.htm,(310) 479-7200,11,34.03844736,-118.4532902
Swimming Pools - Year Round,Richard Alatorre Pool,4721,,,Klamath,St,,,,,,,,"Los Angeles, CA 90032
(34.0757, -118.182)",CA,90032,http://www.laparks.org/dos/aquatic/facility/richardAlatorrePool.htm,(323) 276-3042,14,34.075694,-118.1815698
Parks,Unidad Park,1648,,W,Beverly,Blvd,,,,,,,,"Los Angeles, CA 90026
(34.064, -118.265)",CA,90026,,(310) 548-7675,13,34.063995,-118.264551
Public Computer Centers,Ross Snyder Recreation Center - Public Computer Center,1501,,E,41st,St,,,,,,,,"Los Angeles, CA 90011
(34.0087, -118.247)",CA,90011,http://www.laparks.org/btop/lynda.htm,(323) 231-3964,9,34.00871681,-118.2473934
Tennis Courts,Shatto Tennis Courts,3191,,W,4th,St,,,,,,,,"Los Angeles, CA 90020
(34.0673, -118.289)",CA,90020,http://www.laparks.org/dos/reccenter/facility/shattoRC.htm,(213) 386-8877,13,34.067287,-118.289251
Public Computer Centers,Elysian Valley Recreation Center - Public Computer Center,1811,,,Ripple,St,,,,,,,,"Los Angeles, CA 90039
(34.0989, -118.245)",CA,90039,http://www.laparks.org/btop/lynda.htm,(323) 666-5058,13,34.09889273,-118.24518
Dog Parks,Griffith Park Dog Park,,,N,Zoo,Dr,,,,,Ventura Freeway,,,"Los Angeles, CA 90027
(34.1555, -118.286)",CA,90027,http://www.laparks.org/dos/parks/facility/dogparks/griffithParkDogPk.htm,(323) 913-4688,4,34.155503,-118.286021
Universally Accessible Playgrounds,Lake Street Park,227,,N,Lake,St,,,,,,,,"Los Angeles, CA 90057
(34.0687, -118.27)",CA,90057,http://www.laparks.org/dos/parks/facility/lakeStPk.htm,(213) 207-2196,13,34.06874703,-118.270384
Recreation Centers,Palms Youth Center,2930,,,Overland,Ave,,,,,,,,"Los Angeles, CA 90064
(34.0334, -118.418)",CA,90064,http://www.laparks.org/dos/reccenter/facility/palmsRC.htm,(310) 838-3838,5,34.03335767,-118.418118
Parks,Westwood Park - Aidan's Place,1350,,S,Sepulveda,Blvd,,,,,,,,"Los Angeles, CA 90025
(34.0527, -118.448)",CA,90025,http://www.laparks.org/dos/playground/facility/westwoodUAPRC.htm,(310) 473-3610,5,34.052676,-118.448107
Outdoor Fitness Equipment,Gilbert W. Lindsay Recreation Center,429,,E,42nd,Pl,,,,,,,,"Los Angeles, CA 90011
(34.0066, -118.268)",CA,90011,http://www.laparks.org/dos/reccenter/facility/gilbertLindsayRC.htm,(323) 846-7584,9,34.00661929,-118.2677641
Hiking Trails,Ernest E. Debs Regional Park,4235,,,Monterey,Rd,,,,,,,,"Los Angeles, CA 90032
(34.0954, -118.19)",CA,90032,http://www.laparks.org/dos/parks/facility/debsEERegionalPk.htm,(213) 485-5054,1,34.095367,-118.190495
Recreation Centers,Fred Roberts Recreation Center,4700,,S,Honduras,St,,,,,,,,"Los Angeles, CA 90011
(34.0009, -118.244)",CA,90011,http://www.laparks.org/dos/reccenter/facility/fredRobertsRC.htm,(323) 234-8650,9,34.000886,-118.24401
Parks,Fox & Laurel Park,14353,,,Fox,St,,,,,,,,"Los Angeles, CA 91340
(34.2716, -118.446)",CA,91340,,,7,34.271638,-118.446271
Tennis Courts,Van Ness Tennis Courts,5720,,,2nd,Ave,,,,,,,,"Los Angeles, CA 90043
(33.9908, -118.319)",CA,90043,http://www.laparks.org/dos/reccenter/facility/vanNessRC.htm,(323) 296-1559,8,33.99082417,-118.319119
Parks,Club Circle Park,2890,,,Club,Dr,,,,,,,,"Los Angeles, CA 90043
(34.0389, -118.402)",CA,90043,,(310) 836-1040,5,34.038907,-118.402029
Outdoor Fitness Equipment,Eagle Rock Park,1100,,,Eagle Vista,Dr,,,,,,,,"Los Angeles, CA 90041
(34.143, -118.188)",CA,90041,http://www.laparks.org/dos/reccenter/facility/eagleRockRC.htm,(323) 257-6948,14,34.142988,-118.18805
Parks,Griffith Park - Ceta Forest,5201,,,Zoo,Dr,,,,,,,,"Los Angeles, CA 90027
(34.1551, -118.301)",CA,90027,http://www.laparks.org/dos/parks/facility/cetaForestPk.htm,(323) 913-4688,4,34.155128,-118.30145
Public Computer Centers,Glassell Park Senior Citizen Center - Public Computer Center,3740,,,Verdugo,Rd,,,,,,,,"Los Angeles, CA 90063
(34.1176, -118.232)",CA,90063,http://www.laparks.org/btop/lynda.htm,(323) 550-8809,1,34.117633,-118.232272
Recreation Centers,Lincoln Heights Youth Center,2911,,,Altura,St,,,,,,,,"Los Angeles, CA 90031
(34.0755, -118.212)",CA,90031,http://www.laparks.org/dos/reccenter/facility/lincolnHghtYC.htm,(323) 226-1401,1,34.075537,-118.211513
Parks,Genesee Avenue Park,2330,,S,Genesee,Ave,,,,,,,,"Los Angeles, CA 90016
(34.0369, -118.369)",CA,90016,http://www.laparks.org/dos/parks/facility/geneseeAvePk.htm,(310) 840-2186,10,34.03688,-118.36858
Public Computer Centers,Rancho Cienega - Ira C. Massey Youth Center - Public Computer Center,5001,,,Rodeo,Rd,,,,,,,,"Los Angeles, CA 90016
(34.0224, -118.351)",CA,90016,http://www.laparks.org/btop/lynda.htm,(323) 290-2330,10,34.02235,-118.350784
Parks,Sycamore Grove Park,4702,,N,Figueroa,St,,,,,,,,"Los Angeles, CA 90042
(34.1019, -118.203)",CA,90042,http://www.laparks.org/dos/parks/facility/sycamorePk.htm,(323) 255-0370,1,34.1019,-118.202996
Parks,Harold A. Henry Park,890,,S,Lucerne,Ave,,,,,,,,"Los Angeles, CA 90016
(34.0576, -118.325)",CA,90016,http://www.laparks.org/dos/parks/facility/haroldAHenryPk.htm,(213) 485-5054,4,34.057644,-118.32489
Parks,Pico Union Park,1827,,S,Hoover,St,,,,,,,,"Los Angeles, CA 90006
(34.0411, -118.284)",CA,90006,http://www.laparks.org/dos/parks/facility/picoUnionVestPk.htm,(213) 485-5054,1,34.04106831,-118.2842068
Outdoor Fitness Equipment,Sycamore Grove Park,4702,,N,Figueroa,St,,,,,,,,"Los Angeles, CA 90042
(34.1019, -118.203)",CA,90042,http://www.laparks.org/dos/parks/facility/sycamorePk.htm,(323) 255-0370,1,34.1019,-118.202996
Senior Centers,Las Palmas Senior Citizen Center,1820,,N,Las Palmas,Ave,,,,,,,,"Los Angeles, CA 90028
(34.1046, -118.336)",CA,90028,http://www.laparks.org/dos/senior/facility/lasPalmasSCC.htm,(323) 465-7787,13,34.104627,-118.336186
Recreation Centers,Lou Costello (Hostetter) Recreation Center,3141,,E,Olympic,Blvd,,,,,,,,"Los Angeles, CA 90023
(34.0205, -118.211)",CA,90023,http://www.laparks.org/dos/reccenter/facility/louCostelloRC.htm,(213) 485-9111,14,34.02048437,-118.2108829
Hiking Trails,Griffith Park,,,,Griffith Park,Dr,,,,,Zoo,Dr,,"Los Angeles, CA 90027
(34.1182, -118.272)",CA,90027,http://www.laparks.org/dos/parks/griffithPK/index.htm,(323) 913-4688,4,34.1182,-118.272105
Lakes,Hollenbeck Lake,415,,S,Saint Louis,St,,,,,,,,"Los Angeles, CA 90033
(34.0414, -118.216)",CA,90033,http://www.laparks.org/dos/aquatic/facility/hollenbecklake.htm,(323) 261-0113,14,34.04136456,-118.2160944
Recreation Centers,Carlin G. Smith Recreation Center,511,,W,Ave 46,,,,,,,,,"Los Angeles, CA 90065
(34.102, -118.211)",CA,90065,http://www.laparks.org/dos/reccenter/facility/carlinGSmithRC.htm,(323) 225-4960,1,34.10201827,-118.2110915
Parks,El Paseo De Cahuenga Park,3300,,,Cahuenga,Blvd,,,,,,,,"Los Angeles, CA 90068
(34.1306, -118.35)",CA,90068,http://www.laparks.org/dos/parks/facility/elPaseoDeCahuengaPk.htm,(818) 763-7651,4,34.13059,-118.349673
Swimming Pools - Summer,Green Meadows Pool,431,,E,89th,St,,,,,,,,"Los Angeles, CA 90003
(33.9558, -118.268)",CA,90003,http://www.laparks.org/dos/aquatic/facility/greenMeadowsPool.htm,(323) 789-2726,9,33.955848,-118.268284
Parks,Griffith Park Crystal Springs,4730,,,Crystal Springs,Dr,,,,,,,,"Los Angeles, CA 90027
(34.133, -118.281)",CA,90027,http://www.laparks.org/dos/parks/facility/crystalSpringsPk.htm,(323) 644-2050,4,34.133005,-118.280751
Universally Accessible Playgrounds,Glen Alla Park,4601,,,Alla,Rd,,,,,,,,"Los Angeles, CA 90292
(33.9844, -118.431)",CA,90292,http://www.laparks.org/dos/parks/facility/glenAllaPk.htm,(310) 396-1615,11,33.984438,-118.431009
Recreation Centers,Eagle Rock Recreation Center,1100,,,Eagle Vista,Dr,,,,,,,,"Los Angeles, CA 90041
(34.143, -118.188)",CA,90041,http://www.laparks.org/dos/reccenter/facility/eagleRockRC.htm,(323) 257-6948,14,34.142988,-118.18805
Parks,Gage and Avalon Pocket Park,6301,,S,Avalon,Blvd,,,,,,,,"Los Angeles, CA 90003
(33.9822, -118.265)",CA,90003,,,9,33.982212,-118.265352
Skate Parks,Jackie Tatum Skate Plaza,1535,,W,62nd,St,,,,,,,,"Los Angeles, CA 90047
(33.9842, -118.304)",CA,90047,http://www.laparks.org/dos/parks/skateparks/jackieTatumSkatePk.htm,(323) 778-2579,8,33.984177,-118.303512
Parks,Cheviot Hills Park,2551,,,Motor,Ave,,,,,,,,"Los Angeles, CA 90064
(34.0469, -118.408)",CA,90064,http://www.laparks.org/dos/parks/facility/cheviotHillsPk.htm,(310) 837-5186,5,34.046898,-118.408263
Recreation Centers,Boyle Heights Sports Center,933,,S,Mott,St,,,,,,,,"Los Angeles, CA 90023
(34.0324, -118.214)",CA,90023,http://www.laparks.org/dos/reccenter/facility/boyleHeightsSC.htm,(323) 264-5136,14,34.03237744,-118.213784
Recreation Centers,Trinity Recreation Center,517,,E,25th,St,,,,,,,,"Los Angeles, CA 90011
(34.0242, -118.263)",CA,90011,http://www.laparks.org/dos/reccenter/facility/trinityRC.htm,(213) 485-4195,9,34.024201,-118.263067
Hiking Trails,Runyon Canyon Park,2000,,N,Fuller,Ave,,,,,,,,"Los Angeles, CA 90046
(34.1053, -118.349)",CA,90046,http://www.laparks.org/dos/parks/facility/runyoncanyonpk.htm,(323) 666-5046,4,34.10530646,-118.3488732
Parks,Little Green Acres Park,,,,104th,St,,,,,Vermont,Ave,,"Los Angeles, CA 90044
(33.9416, -118.291)",CA,90044,http://www.laparks.org/dos/parks/facility/littleGreenAcresPk.htm,(213) 485-1748,8,33.94164,-118.2914
Senior Centers,Lincoln Heights Senior Citizen Center,2323,,,Workman,St,,,,,,,,"Los Angeles, CA 90031
(34.0726, -118.215)",CA,90031,http://www.laparks.org/dos/senior/facility/lincolnHeightsSCC.htm,(323) 225-9339,1,34.0725759,-118.2145078
Parks,Selma Park,6567,,,Selma,Ave,,,,,,,,"Los Angeles, CA 90028
(34.0999, -118.333)",CA,90028,http://www.laparks.org/dos/parks/facility/selmaPk.htm,(213) 847-3599,13,34.09985676,-118.3331657
Universally Accessible Playgrounds,Martin Luther King Jr. Recreation Center,3916,,S,Western,Ave,,,,,,,,"Los Angeles, CA 90062
(34.0139, -118.309)",CA,90062,http://www.laparks.org/dos/reccenter/facility/martinLKTRC.htm,(213) 847-0878,8,34.01394464,-118.3087893
Swimming Pools - Year Round,Eleanor Green Roberts Indoor Pool,4526,,W,Pico,Blvd,,,,,,,,"Los Angeles, CA 90019
(34.0485, -118.335)",CA,90019,http://www.laparks.org/dos/aquatic/facility/eleanorGrRobertsPool.htm,(323) 936-8483,10,34.048485,-118.334609
Universally Accessible Playgrounds,Hermon / Arroyo Seco Park,5566,,,Via Marisol,,,,,,,,,"Los Angeles, CA 90042
(34.1044, -118.187)",CA,90042,http://www.laparks.org/dos/parks/facility/arroyoSPk.htm,(213) 485-5054,14,34.104402,-118.187327
Tennis Courts,Lafayette Tennis Courts,625,,S,Lafayette Park,Pl,,,,,,,,"Los Angeles, CA 90057
(34.0612, -118.284)",CA,90057,http://www.laparks.org/dos/reccenter/facility/lafayetteMCC.htm,(213) 384-0562,10,34.061193,-118.283801
Senior Centers,Felicia Mahood Senior Multipurpose Center,11338,,,Santa Monica,Blvd,,,,,,,,"Los Angeles, CA 90025
(34.0456, -118.45)",CA,90025,http://www.laparks.org/dos/reccenter/facility/feliciamahoodMRC.htm,(310) 479-4119,11,34.045637,-118.449914
Public Computer Centers,Griffith Park Adult Community Center - Public Computer Center,3203,,,Riverside,Dr,,,,,,,,"Los Angeles, CA 90027
(34.1142, -118.269)",CA,90027,http://www.laparks.org/btop/lynda.htm,(323) 644-5579,4,34.114167,-118.26892
Public Computer Centers,William Nickerson Gardens Recreation Center - Public Computer Center,11251,,,Compton,Ave,,,,,,,,"Los Angeles, CA 90059
(33.9322, -118.247)",CA,90059,http://www.laparks.org/btop/lynda.htm,(323) 566-1416,15,33.932182,-118.247169
Parks,Augustus F. Hawkins Natural Park,5790,,,Compton,Ave,,,,,,,,"Los Angeles, CA 90011
(33.9903, -118.248)",CA,90011,http://www.laparks.org/dos/reccenter/facility/augustusHawkinsNatureCtr.htm,(323) 581-4498,9,33.990292,-118.247712
Recreation Centers,Elysian Park Recreation Center,929,,,Academy,Rd,,,,,,,,"Los Angeles, CA 90012
(34.0812, -118.238)",CA,90012,http://www.laparks.org/dos/reccenter/facility/elysianPkTRC.htm,(323) 226-1402,13,34.081153,-118.237908
Tennis Courts,Yosemite Tennis Courts,1840,,,Yosemite,Dr,,,,,,,,"Los Angeles, CA 90041
(34.1337, -118.208)",CA,90041,http://www.laparks.org/dos/reccenter/facility/yosemiteRC.htm,(323) 257-1644,14,34.133742,-118.20819
Parks,Trinity Park,517,,E,25th,St,,,,,,,,"Los Angeles, CA 90011
(34.0239, -118.263)",CA,90011,http://www.laparks.org/dos/reccenter/facility/trinityRC.htm,(213) 485-4195,9,34.02385032,-118.2634554
Public Computer Centers,Robertson Recreation Youth Center - Public Computer Center,1641,,,Preuss,Rd,,,,,,,,"Los Angeles, CA 90035
(34.0495, -118.385)",CA,90035,http://www.laparks.org/btop/lynda.htm,(310) 278-5383,5,34.049457,-118.384807
Parks,Leimert Plaza Park,4395,,,Leimert,Blvd,,,,,,,,"Los Angeles, CA 90008
(34.0039, -118.331)",CA,90008,http://www.laparks.org/dos/parks/facility/leimertPlazaPk.htm,(323) 291-5928,10,34.003937,-118.330564
Parks,Woodbine Park,3409,,,Vinton,Ave,,,,,,,,"Los Angeles, CA 90034
(34.028, -118.408)",CA,90034,http://www.laparks.org/dos/parks/facility/woodbinePk.htm,(310) 836-1040,5,34.02800986,-118.4084365
Public Computer Centers,Lou Costello (Hostetter) Recreation Center - Public Computer Center,3141,,E,Olympic,Blvd,,,,,,,,"Los Angeles, CA 90023
(34.0205, -118.211)",CA,90023,http://www.laparks.org/btop/lynda.htm,(213) 485-9111,14,34.02048437,-118.2108829
Recreation Centers,Echo Park Community Center,303,,,Patton,St,,,,,,,,"Los Angeles, CA 90026
(34.0654, -118.259)",CA,90026,http://www.laparks.org/dos/reccenter/facility/echoparkRC.htm,(213) 481-1033,1,34.06545,-118.259304
Recreation Centers,Vineyard Recreation Center,2942,,,Vineyard,Ave,,,,,,,,"Los Angeles, CA 90016
(34.0283, -118.347)",CA,90016,http://www.laparks.org/dos/reccenter/facility/vineyardRC.htm,(323) 732-2469,10,34.02828057,-118.34653
Public Computer Centers,Algin Sutton Recreation Center - Public Computer Center,8800,,S,Hoover,St,,,,,,,,"Los Angeles, CA 90044
(33.9578, -118.286)",CA,90044,http://www.laparks.org/btop/lynda.htm,(323) 753-5808,8,33.957778,-118.285546
Tennis Courts,Green Meadows Tennis Courts,431,,E,89th,St,,,,,,,,"Los Angeles, CA 90003
(33.9562, -118.269)",CA,90003,http://www.laparks.org/dos/reccenter/facility/greenMeadowsRC.htm,(323) 565-4242,9,33.956221,-118.268762
Parks,Loren Miller Park,2717,,,Halldale,Ave,,,,,,,,"Los Angeles, CA 90018
(34.0303, -118.303)",CA,90018,http://www.laparks.org/dos/reccenter/facility/lorenMillerRC.htm,(323) 734-1302,8,34.03026082,-118.3030305
Outdoor Fitness Equipment,Algin Sutton Recreation Center,8800,,S,Hoover,St,,,,,,,,"Los Angeles, CA 90044
(33.9578, -118.286)",CA,90044,http://www.laparks.org/dos/reccenter/facility/alginSuttonRC.htm,(323) 753-5808,8,33.957778,-118.285546
Parks,Ernest E. Debs Regional Park,4235,,,Monterey,Rd,,,,,,,,"Los Angeles, CA 90032
(34.0954, -118.19)",CA,90032,http://www.laparks.org/dos/parks/facility/debsEERegionalPk.htm,(213) 485-5054,1,34.095367,-118.190495
Public Computer Centers,Watts Senior Citizen Center - Public Computer Center,1657,,E,Century,Blvd,,,,,,,,"Los Angeles, CA 90002
(33.9463, -118.244)",CA,90002,http://www.laparks.org/btop/lynda.htm,(323) 564-9440,15,33.94634,-118.24394
Recreation Centers,Downey Recreation Center,1772,,N,Spring,St,,,,,,,,"Los Angeles, CA 90031
(34.0712, -118.223)",CA,90031,http://www.laparks.org/dos/reccenter/facility/downeyRC.htm,(323) 225-7100,1,34.071162,-118.223432
Recreation Centers,Lincoln Park Recreation Center,3501,,,Valley,Blvd,,,,,,,,"Los Angeles, CA 90031
(34.0658, -118.199)",CA,90031,http://www.laparks.org/dos/reccenter/facility/lincolnParkRC.htm,(213) 847-1726,1,34.065824,-118.198986
Recreation Centers,William Nickerson Gardens Recreation Center,11251,,,Compton,Ave,,,,,,,,"Los Angeles, CA 90059
(33.9322, -118.247)",CA,90059,http://www.laparks.org/dos/reccenter/facility/williamNickersonRC.htm,(323) 566-1416,15,33.932182,-118.247169
Parks,Poinsettia Park,7341,,,Willoughy,Ave,,,,,,,,"Los Angeles, CA 90046
(34.0872, -118.35)",CA,90046,http://www.laparks.org/dos/reccenter/facility/poinsettiaRC.htm,(323) 876-5014,5,34.08722019,-118.3502662
Gardens,Watts Rose Garden,1657,,E,Century,Blvd,,,,,,,,"Los Angeles, CA 90002
(33.9458, -118.244)",CA,90002,http://www.laparks.org/dos/horticulture/watts.htm,(213) 564-9440,15,33.94576539,-118.2439527
Parks,Cleland Avenue Bicentennial Park,4800,,,Cleland,Ave,,,,,,,,"Los Angeles, CA 90042
(34.1133, -118.213)",CA,90042,http://www.laparks.org/dos/parks/facility/clelandAvePk.htm,(323) 255-0370,1,34.11331,-118.212598
Skate Parks,Garvanza Skate Park,6240,,,Meridian,St,,,,,,,,"Los Angeles, CA 90042
(34.1201, -118.18)",CA,90042,http://www.laparks.org/dos/parks/skateparks/garvanzaSkatePk.htm,(323) 255-0370,14,34.12007,-118.179944
Recreation Centers,Jim Gilliam Recreation Center,4000,,S,La Brea,Ave,,,,,,,,"Los Angeles, CA 90008
(34.0123, -118.353)",CA,90008,http://www.laparks.org/dos/reccenter/facility/jimGilliamRC.htm,(323) 291-5928,10,34.01227,-118.352773
Lakes,Lincoln Park Lake,3501,,,Valley,Blvd,,,,,,,,"Los Angeles, CA 90031
(34.0658, -118.199)",CA,90031,http://www.laparks.org/dos/reccenter/facility/lincolnParkRC.htm,(213) 847-1726,1,34.065824,-118.198986
Parks,El Sereno Park,4721,,,Klamath,St,,,,,,,,"Los Angeles, CA 90032
(34.0757, -118.182)",CA,90032,http://www.laparks.org/dos/reccenter/facility/elserenoRC.htm,(323) 225-3517,14,34.075723,-118.181788
Parks,Laurel and Hardy Park,3022,,,Del Monte,Dr,,,,,,,,"Los Angeles, CA 90027
(34.0825, -118.275)",CA,90027,,(310) 548-7675,13,34.082498,-118.274851
Public Computer Centers,EXPO Center / Roy A. Anderson Recreation Center - Public Computer Center,3980,,,Bill Robertson,Ln,,,,,,,,"Los Angeles, CA 90037
(34.012, -118.29)",CA,90037,http://www.laparks.org/btop/lynda.htm,(213) 763-0114,9,34.01201674,-118.2901009
Recreation Centers,Hollenbeck Recreation Center,415,,S,Saint Louis,St,,,,,,,,"Los Angeles, CA 90033
(34.0414, -118.216)",CA,90033,http://www.laparks.org/dos/reccenter/facility/hollenbeckRC.htm,(323) 261-0113,14,34.04136456,-118.2160944
Parks,Circle Park (5th Ave.),,,,76th,St,,,,,5th,Ave,,"Los Angeles, CA 90043
(33.9709, -118.322)",CA,90043,,(310) 548-7675,8,33.970894,-118.322173
Parks,San Pedro Welcome Park,351,,N,Gaffey,St,,,,,,,,"Los Angeles, CA 90731
(33.7461, -118.293)",CA,90731,,(310) 548-7675,15,33.746055,-118.292652
Parks,Richard Alatorre Park,,,N,Figueroa,St,,,,,,,,"Los Angeles, CA 90041
(34.144, -118.184)",CA,90041,http://www.laparks.org/dos/parks/facility/richardAlatorrePk.htm,(323) 255-0370,14,34.143976,-118.184218
Outdoor Fitness Equipment,Poinsettia Park,7341,,,Willoughy,Ave,,,,,,,,"Los Angeles, CA 90046
(34.0872, -118.35)",CA,90046,http://www.laparks.org/dos/reccenter/facility/poinsettiaRC.htm,(323) 876-5014,5,34.08722019,-118.3502662
Parks,Highland Park,6150,,,Piedmont,Ave,,,,,,,,"Los Angeles, CA 90042
(34.1135, -118.188)",CA,90042,http://www.laparks.org/dos/reccenter/facility/highlandParkRC.htm,(213) 847-4876,1,34.113477,-118.187954
Parks,Tommy Lasorda's Field of Dreams,1901,,,Waterloo,St,,,,,,,,"Los Angeles, CA 90039
(34.0907, -118.26)",CA,90039,http://www.laparks.org/dos/reccenter/facility/silverLakeRC.htm,(310) 548-7675,13,34.090671,-118.259926
Recreation Centers,Loren Miller Recreation Center,2717,,,Halldale,Ave,,,,,,,,"Los Angeles, CA 90018
(34.0303, -118.303)",CA,90018,http://www.laparks.org/dos/reccenter/facility/lorenMillerRC.htm,(323) 734-1302,8,34.03026082,-118.3030305
Public Computer Centers,Fairfax Senior Citizen Center - Public Computer Center,7929,,,Melrose,Ave,,,,,,,,"Los Angeles, CA 90046
(34.084, -118.362)",CA,90046,http://www.laparks.org/btop/lynda.htm,(323) 653-1824,5,34.084022,-118.362491
Universally Accessible Playgrounds,Lincoln Park,3501,,,Valley,Blvd,,,,,,,,"Los Angeles, CA 90031
(34.0656, -118.202)",CA,90031,http://www.laparks.org/dos/parks/facility/lincolnPk.htm,(213) 847-1726,1,34.06561417,-118.2018369
Free Wi-Fi Hot Spots,Pershing Square,530,,S,Olive,St,,,,,,,,"Los Angeles, CA 90012
(34.0486, -118.253)",CA,90012,http://www.laparks.org/pershingsquare/index.html,(213) 847-4970,14,34.04856,-118.25348
Museums,El Pueblo de Los Angeles (Olvera Street),125,,,Paseo De La Plaza,,,,,,,,,"Los Angeles, CA 90012
(34.0566, -118.239)",CA,90012,http://elpueblo.lacity.org/,(213) 485-6855,14,34.056616,-118.238786
Parks,Silver Lake Meadows Park,2270,,,Silver Lake,Blvd,,,,,,,,"Los Angeles, CA 90039
(34.0986, -118.261)",CA,90039,,(310) 548-7675,13,34.098621,-118.261095
Recreation Centers,Green Meadows Recreation Center,431,,E,89th,St,,,,,,,,"Los Angeles, CA 90003
(33.9557, -118.267)",CA,90003,http://www.laparks.org/dos/reccenter/facility/greenMeadowsRC.htm,(323) 565-4242,9,33.95568832,-118.2672316
Parks,Downey Park,1772,,N,Spring,St,,,,,,,,"Los Angeles, CA 90031
(34.0712, -118.223)",CA,90031,http://www.laparks.org/dos/reccenter/facility/downeyRC.htm,(323) 225-7100,1,34.071162,-118.223432
Theatre,W. M. Keck Amphitheatre,3990,,,Bill Robertson,Ln,,,,,,,,"Los Angeles, CA 90037
(34.0116, -118.289)",CA,90037,http://www.laparks.org/expo/theatre.htm,(213) 764-0114,9,34.011595,-118.289314
Golf Courses,Los Feliz 3-Par Golf Course,3207,,,Los Feliz,Blvd,,,,,,,,"Los Angeles, CA 90039
(34.1233, -118.269)",CA,90039,http://www.laparks.org/golf/cdp_los_feliz.htm,(323) 663-7758,13,34.12330116,-118.269339
Parks,Los Angeles Plaza Park,125,,,Paseo De La Plaza,,,,,,,,,"Los Angeles, CA 90012
(34.0569, -118.239)",CA,90012,http://www.laparks.org/dos/parks/facility/laPlazaPk.htm,(213) 628-1274,14,34.05692598,-118.2385958
Parks,Elysian Park,929,,,Academy,Rd,,,,,,,,"Los Angeles, CA 90012
(34.0794, -118.236)",CA,90012,http://www.laparks.org/dos/parks/facility/elysianPk.htm,(213) 485-5054,13,34.079411,-118.235668
Tennis Courts,Glassell Park Tennis Courts,3650,,,Verdugo,Rd,,,,,,,,"Los Angeles, CA 90065
(34.1155, -118.234)",CA,90065,http://www.laparks.org/dos/reccenter/facility/glassellParkRC.htm,(323) 257-1863,1,34.115486,-118.234129
Parks,Stoner Park,1835,,,Stoner,Ave,,,,,,,,"Los Angeles, CA 90025
(34.0384, -118.453)",CA,90025,http://www.laparks.org/dos/reccenter/facility/stonerRC.htm,(310) 479-7200,11,34.03844736,-118.4532902
Swimming Pools - Summer,Yosemite Pool,1840,,,Yosemite,Dr,,,,,,,,"Los Angeles, CA 90041
(34.1338, -118.208)",CA,90041,http://www.laparks.org/dos/aquatic/facility/yosemitePool.htm,(323) 226-1668,14,34.133756,-118.208194
Recreation Centers,Normandie Recreation Center,1550,,S,Normandie,Ave,,,,,,,,"Los Angeles, CA 90006
(34.0446, -118.3)",CA,90006,http://www.laparks.org/dos/reccenter/facility/normandieRC.htm,(323) 737-1181,1,34.04464,-118.299791
Parks,Montecito Heights Park,4545,,,Homer,St,,,,,,,,"Los Angeles, CA 90031
(34.0955, -118.203)",CA,90031,http://www.laparks.org/dos/reccenter/facility/montecitoHeightsRC.htm,(213) 485-5148,1,34.095544,-118.20335
Parks,Los Angeles High Memorial Park,4625,,W,Olympic,Blvd,,,,,,,,"Los Angeles, CA 90019
(34.0566, -118.332)",CA,90019,http://www.laparks.org/dos/parks/facility/laHighMemorialPk.htm,(213) 485-5054,4,34.05657403,-118.3319039
Recreation Centers,EXPO Center / Roy A. Anderson Recreation Center,3980,,,Bill Robertson,Ln,,,,,,,,"Los Angeles, CA 90037
(34.012, -118.29)",CA,90037,http://laparks.org/expo/,(213) 763-0114,9,34.01201674,-118.2901009
Parks,Robert L. Burns Park,4900,,,Beverly,Blvd,,,,,,,,"Los Angeles, CA 90004
(34.0757, -118.316)",CA,90004,http://www.laparks.org/dos/parks/facility/burnsRLPk.htm,(213) 847-3599,4,34.075652,-118.316078
Parks,Ascot Hills Park,4371,,,Multnomah,St,,,,,,,,"Los Angeles, CA 90032
(34.0697, -118.19)",CA,90032,http://www.laparks.org/dos/parks/facility/ascothillsPk.htm,(323) 223-2764,14,34.06969978,-118.1899629
Parks,Lafayette Park,625,,S,Lafayette Park,Pl,,,,,,,,"Los Angeles, CA 90057
(34.0621, -118.283)",CA,90057,http://www.laparks.org/dos/reccenter/facility/lafayetteMCC.htm,(213) 384-0562,10,34.06211618,-118.282875
Golf Courses,Rancho Park 18-Hole Golf Course,10460,,W,Pico,Blvd,,,,,,,,"Los Angeles, CA 90064
(34.045, -118.418)",CA,90064,http://www.laparks.org/golf/cdp_rancho.htm,(310) 838-7373,5,34.045022,-118.418289
Swimming Pools - Year Round,LACES (Los Angeles Center for Enriched Studies) Pool,5931,,W,18th,St,,,,,,,,"Los Angeles, CA 90035
(34.0436, -118.371)",CA,90035,http://www.laparks.org/dos/aquatic/facility/lacesPool.htm,(323) 933-8345,10,34.04361628,-118.3714542
Recreation Centers,South Seas House,2301,,W,24th,St,,,,,Arlington,Ave,,"Los Angeles, CA 90018
(34.035, -118.318)",CA,90018,http://www.laparks.org/dos/reccenter/facility/southseashouse.htm,(323) 373-9483,10,34.03499817,-118.3179553
Public Computer Centers,South Park Recreation Center - Public Computer Center,345,,E,51st,St,,,,,,,,"Los Angeles, CA 90011
(33.9974, -118.268)",CA,90011,http://www.laparks.org/btop/lynda.htm,(213) 847-6746,9,33.997417,-118.267651
Public Computer Centers,Imperial Courts Recreation Center - Public Computer Center,2250,,E,114th,St,,,,,,,,"Los Angeles, CA 90059
(33.9313, -118.232)",CA,90059,http://www.laparks.org/dos/reccenter/facility/imperialcourtsRC.htm,(323) 564-1834,15,33.93125654,-118.2324199
Tennis Courts,Westchester Tennis Courts,7000,,W,Manchester,Ave,,,,,,,,"Los Angeles, CA 90045
(33.9596, -118.415)",CA,90045,http://www.laparks.org/dos/sports/tennis/facility/westchesterTC.htm,(310) 649-4886,11,33.959629,-118.415188
Parks,Latham Park,,,,Latham,St,,,,,53rd,St,,"Los Angeles, CA 90011
(33.9945, -118.251)",CA,90011,http://www.laparks.org/dos/parks/facility/lathamPk.htm,(213) 346-7395,9,33.99451,-118.25129
Parks,Griffith Park,,,,Griffith Park,Dr,,,,,Zoo,Dr,,"Los Angeles, CA 90027
(34.1182, -118.272)",CA,90027,http://www.laparks.org/dos/parks/griffithPK/index.htm,(323) 913-4688,4,34.1182,-118.272105
Parks,North Atwater Park,3900,,W,Chevy Chase,Dr,,,,,,,,"Los Angeles, CA 90039
(34.1334, -118.272)",CA,90039,http://www.laparks.org/dos/parks/facility/northAtwaterPk.htm,(323) 664-6611,13,34.133398,-118.271813
Rental Facilities,Elysian Park - Grace E. Simons Lodge,1025,,,Elysian Park,Dr,,,,,,,,"Los Angeles, CA 90012
(34.0866, -118.245)",CA,90012,http://www.laparks.org/dos/reservations/grace.htm,(323) 665-1155,13,34.086566,-118.245386
Golf Courses,Roosevelt 9-Hole Golf Course,2650,,N,Vermont,Ave,,,,,,,,"Los Angeles, CA 90027
(34.1185, -118.294)",CA,90027,http://golf.lacity.org/cdp_roosevelt.htm,(323) 665-2011,4,34.118472,-118.29388
Parks,Elinor and Don Richardson Family Park,2700,,S,Budlong,Ave,,,,,,,,"Los Angeles, CA 90007
(34.0301, -118.296)",CA,90007,http://www.laparks.org/dos/parks/facility/richardsonFamilyPk.htm,(213) 485-5054,8,34.03012939,-118.2958057
Swimming Pools - Summer,Downey Pool,1775,,N,Spring,St,,,,,,,,"Los Angeles, CA 90031
(34.0715, -118.223)",CA,90031,http://www.laparks.org/dos/aquatic/facility/downeyPool.htm,(323) 227-5025,1,34.071538,-118.223075
Parks,Mount Olympus Park,243,,E,Avenue 33,,,,,,,,,"Los Angeles, CA 90031
(34.0847, -118.211)",CA,90031,,(310) 548-7675,1,34.084669,-118.210822
Parks,Griffith Park - Bette Davis Picnic Area,,,,Rancho,Ave,,,,,Riverside,Dr,,"Los Angeles, CA 90027
(34.1586, -118.298)",CA,90027,,(323) 913-4688,4,34.15857211,-118.2975598
Parks,Henry Alvarez Memorial Park (Ramona Gardens),2830,,,Lancaster,Ave,,,,,,,,"Los Angeles, CA 90033
(34.0588, -118.195)",CA,90033,http://www.laparks.org/dos/parks/facility/alvarezHMPk.htm,(213) 847-2961,14,34.05881,-118.195184
Parks,Dorothy J. and Benjamin B. Smith Park,7020,,,Franklin,Ave,,,,,,,,"Los Angeles, CA 90028
(34.104, -118.343)",CA,90028,http://www.laparks.org/dos/parks/facility/smithDBPk.htm,(213) 847-3599,13,34.10399621,-118.3428203
Swimming Pools - Summer,Cheviot Hills Pool,2693,,,Motor,Ave,,,,,,,,"Los Angeles, CA 90064
(34.0449, -118.407)",CA,90064,http://www.laparks.org/dos/aquatic/facility/cheviotHillsPool.htm,(310) 202-2844,5,34.04488343,-118.4065309
Parks,Grape Street Pocket Park,10726,,,Grape,St,,,,,,,,"Los Angeles, CA 90059
(33.9381, -118.237)",CA,90059,http://www.laparks.org/dos/parks/facility/grapeStPocketPk.htm,(213) 785-1835,15,33.938145,-118.236807
Senior Centers,Claude Pepper Senior Citizen Center,1762,,S,La Cienega,Blvd,,,,,,,,"Los Angeles, CA 90035
(34.0452, -118.377)",CA,90035,http://www.laparks.org/dos/senior/facility/claudePepperSCC.htm,(310) 559-9677,10,34.045157,-118.376682
Swimming Pools - Summer,Griffith Park Pool,3401,,,Griffith Park,Dr,,,,,,,,"Los Angeles, CA 90027
(34.1163, -118.27)",CA,90027,http://www.laparks.org/dos/aquatic/facility/griffithParkPool.htm,(323) 644-6878,4,34.116338,-118.27026
Parks,109th Street Park,1464,,E,109th,St,,,,,,,,"Los Angeles, CA 90059
(33.9366, -118.249)",CA,90059,http://www.laparks.org/dos/reccenter/facility/109thStreetRC.htm,(323) 566-4561,15,33.93664647,-118.2489586
Recreation Centers,Lake Street Community Center,227,,N,Lake,St,,,,,,,,"Los Angeles, CA 90057
(34.0687, -118.27)",CA,90057,http://www.laparks.org/dos/reccenter/facility/lakestComC.htm,(213) 207-2196,13,34.06874703,-118.270384
Gardens,Ocean View Farms Community Garden,3324,,S,Centinela,Ave,,,,,,,,"Los Angeles, CA 90066
(34.0142, -118.441)",CA,90066,,(310) 548-7675,11,34.014234,-118.441219
Public Computer Centers,Highland Park Recreation Center - Public Computer Center,6150,,,Piedmont,Ave,,,,,,,,"Los Angeles, CA 90042
(34.1132, -118.188)",CA,90042,http://www.laparks.org/btop/lynda.htm,(213) 847-4875,1,34.113209,-118.187806
Parks,Elysian Park - Bishop Canyon,929,,,Academy,Rd,,,,,,,,"Los Angeles, CA 90012
(34.0817, -118.235)",CA,90012,http://www.laparks.org/dos/parks/facility/bishopCanyonElysianPk.htm,(213) 485-5054,13,34.081707,-118.234692
Outdoor Fitness Equipment,4916 S. McKinley Avenue Pocket Park,4916,2-Jan,S,McKinley,Ave,,,,,,,,"Los Angeles, CA 90011
(33.9988, -118.261)",CA,90011,,(310) 548-7675,9,33.998755,-118.260624
Swimming Pools - Summer,Highland Park Pool,6150,,,Piedmont,Ave,,,,,,,,"Los Angeles, CA 90042
(34.1126, -118.189)",CA,90042,http://www.laparks.org/dos/aquatic/facility/highlandPool.htm,(323) 257-5924,1,34.112643,-118.188878
Recreation Centers,Evergreen Recreation Center,2844,,E,2nd,St,,,,,,,,"Los Angeles, CA 90033
(34.039, -118.203)",CA,90033,http://www.laparks.org/dos/reccenter/facility/evergreenRC.htm,(323) 262-0397,14,34.038954,-118.203476
Parks,Van Ness Park,5720,,,2nd,Ave,,,,,,,,"Los Angeles, CA 90043
(33.9908, -118.319)",CA,90043,http://www.laparks.org/dos/reccenter/facility/vanNessRC.htm,(323) 296-1559,8,33.99082417,-118.319119
Recreation Centers,109th Street Recreation Center,1464,,E,109th,St,,,,,,,,"Los Angeles, CA 90059
(33.9366, -118.249)",CA,90059,http://www.laparks.org/dos/reccenter/facility/109thStreetRC.htm,(323) 566-4561,15,33.93664647,-118.2489586
Recreation Centers,Lemon Grove Recreation Center,4959,,,Lemon Grove,Ave,,,,,,,,"Los Angeles, CA 90029
(34.0863, -118.305)",CA,90029,http://www.laparks.org/dos/reccenter/facility/lemonGroveRC.htm,(323) 666-4144,13,34.08634611,-118.3046676
Open Space,Cahuenga Peak,3698,,W,Wonder View,Dr,,,,,,,,"Los Angeles, CA 90068
(34.1342, -118.335)",CA,90068,,(818) 243-6472,4,34.134173,-118.334606
Tennis Courts,Montecito Heights Tennis Courts,4545,,,Homer,St,,,,,,,,"Los Angeles, CA 90031
(34.0958, -118.204)",CA,90031,http://www.laparks.org/dos/reccenter/facility/montecitoHeightsRC.htm,(213) 485-5148,1,34.09578,-118.204152
Outdoor Fitness Equipment,Lincoln Park,3501,,,Valley,Blvd,,,,,,,,"Los Angeles, CA 90031
(34.0656, -118.202)",CA,90031,http://www.laparks.org/dos/parks/facility/lincolnPk.htm,(213) 847-1726,1,34.06561417,-118.2018369
Parks,Vineyard Park,2942,,,Vineyard,Ave,,,,,,,,"Los Angeles, CA 90016
(34.0283, -118.347)",CA,90016,http://www.laparks.org/dos/reccenter/facility/vineyardRC.htm,(323) 732-2469,10,34.02828057,-118.34653
Public Computer Centers,Loren Miller Youth Center - Public Computer Center,2717,,,Halldale,Ave,,,,,,,,"Los Angeles, CA 90018
(34.0303, -118.303)",CA,90018,http://www.laparks.org/btop/lynda.htm,(323) 734-1302,8,34.03026082,-118.3030305
Senior Centers,Vineyard Senior Citizen Center,2942,,,Vineyard,Ave,,,,,,,,"Los Angeles, CA 90016
(34.0283, -118.347)",CA,90016,http://www.laparks.org/dos/senior/facility/vineyardSCC.htm,(323) 732-2469,10,34.02828057,-118.34653
Parks,York Boulevard Pocket Park,4948,,,York,Blvd,,,,,,,,"Los Angeles, CA 90042
(34.1214, -118.207)",CA,90042,,,1,34.121388,-118.207218
Parks,Green Meadows Park,431,,E,89th,St,,,,,,,,"Los Angeles, CA 90003
(33.9557, -118.267)",CA,90003,http://www.laparks.org/dos/reccenter/facility/greenMeadowsRC.htm,(323) 565-4242,9,33.95568832,-118.2672316
Public Computer Centers,Toberman Recreation Center - Public Computer Center,1725,,,Toberman,St,,,,,,,,"Los Angeles, CA 90015
(34.0391, -118.279)",CA,90015,http://www.laparks.org/btop/lynda.htm,(213) 485-6896,1,34.03912821,-118.2787516
Parks,Vermont Square,1248,,W,47th,St,,,,,,,,"Los Angeles, CA 90037
(34.0006, -118.297)",CA,90037,http://www.laparks.org/dos/parks/facility/vermontsqPk.htm,(323) 296-1559,9,34.0005829,-118.2971828
Parks,Shatto Park,3191,,W,4th,St,,,,,,,,"Los Angeles, CA 90020
(34.0673, -118.289)",CA,90020,http://www.laparks.org/dos/reccenter/facility/shattoRC.htm,(213) 386-8877,13,34.067287,-118.289251
Parks,Prospect Park,,,,Echandia,St,,,,,Judson,St,,"Los Angeles, CA 90033
(34.0536, -118.217)",CA,90033,http://www.laparks.org/dos/parks/facility/prospectPk.htm,(323) 224-2315,14,34.05358,-118.216963
Outdoor Fitness Equipment,York Boulevard Pocket Park,4948,,,York,Blvd,,,,,,,,"Los Angeles, CA 90042
(34.1214, -118.207)",CA,90042,,,1,34.121388,-118.207218
Lakes,MacArthur Park Lake,2230,,W,6th,St,,,,,,,,"Los Angeles, CA 90057
(34.0581, -118.277)",CA,90057,http://www.laparks.org/dos/aquatic/facility/macArthurPkL.htm,(213) 368-0520,1,34.058107,-118.276802
Recreation Centers,Stoner Recreation Center,1835,,,Stoner,Ave,,,,,,,,"Los Angeles, CA 90025
(34.0384, -118.453)",CA,90025,http://www.laparks.org/dos/reccenter/facility/stonerRC.htm,(310) 479-7200,11,34.03844736,-118.4532902
Skate Parks,Gilbert W. Lindsay Skate Park,429,,E,42nd,Pl,,,,,,,,"Los Angeles, CA 90011
(34.0066, -118.268)",CA,90011,http://www.laparks.org/dos/parks/skateparks/gilbertLindsaySkatePk.htm,(323) 233-0552,9,34.00661929,-118.2677641
Parks,James Slauson Park,5300,,S,Compton,Ave,,,,,,,,"Los Angeles, CA 90011
(33.9946, -118.248)",CA,90011,http://www.laparks.org/dos/reccenter/facility/slausonMC.htm,(323) 233-1174,9,33.99462127,-118.2476422
Parks,Algin Sutton Park,8800,,S,Hoover,St,,,,,,,,"Los Angeles, CA 90044
(33.9579, -118.287)",CA,90044,http://www.laparks.org/dos/reccenter/facility/alginSuttonRC.htm,(323) 753-5808,8,33.957928,-118.286929
Outdoor Fitness Equipment,Lou Costello (Hostetter) Park,3141,,E,Olympic,Blvd,,,,,,,,"Los Angeles, CA 90023
(34.0205, -118.211)",CA,90023,http://www.laparks.org/dos/reccenter/facility/louCostelloRC.htm,(213) 485-9111,14,34.02048437,-118.2108829
Tennis Courts,Queen Anne Tennis Courts,1240,,,West,Blvd,,,,,,,,"Los Angeles, CA 90019
(34.0516, -118.332)",CA,90019,http://www.laparks.org/dos/reccenter/facility/queenAnneRC.htm,(323) 857-1180,10,34.051562,-118.332171
Parks,Valencia (Ross) Community Park,,,E,1st,St,,,,,Chicago,St,,"Los Angeles, CA 90033
(34.0448, -118.212)",CA,90033,http://www.laparks.org/dos/parks/facility/laniVestPocketPk.htm,(213) 485-4858,14,34.04480331,-118.2122865
Parks,Lemon Grove Park,4959,,,Lemon Grove,Ave,,,,,,,,"Los Angeles, CA 90029
(34.0863, -118.305)",CA,90029,http://www.laparks.org/dos/reccenter/facility/lemonGroveRC.htm,(323) 666-4144,13,34.08634611,-118.3046676
Parks,Baldwin Hills Park,5401,,,Highlight,Pl,,,,,,,,"Los Angeles, CA 90016
(34.0234, -118.365)",CA,90016,http://www.laparks.org/dos/reccenter/facility/baldwinHillsRC.htm,(323) 934-0746,10,34.02340135,-118.3646015
Tennis Courts,Stoner Tennis Courts,1835,,,Stoner,Ave,,,,,,,,"Los Angeles, CA 90025
(34.0384, -118.453)",CA,90025,http://www.laparks.org/dos/reccenter/facility/stonerRC.htm,(310) 479-7200,11,34.03844736,-118.4532902
Parks,Cypress Park,2630,,,Pepper,Ave,,,,,,,,"Los Angeles, CA 90065
(34.0894, -118.226)",CA,90065,http://www.laparks.org/dos/reccenter/facility/cypressRC.htm,(213) 485-5384,1,34.0894357,-118.2255846
Universally Accessible Playgrounds,Rio De Los Angeles State Park,1900,,N,San Fernando,Rd,,,,,,,,"Los Angeles, CA 90065
(34.1011, -118.237)",CA,90065,http://www.laparks.org/dos/reccenter/facility/riodeLosAngeles.htm,(323) 276-3015,1,34.101135,-118.236579
Parks,Saint Andrews Park,8701,,,St. Andrews,Pl,,,,,,,,"Los Angeles, CA 90047
(33.9597, -118.311)",CA,90047,http://www.laparks.org/dos/reccenter/facility/StAndrewsRC.htm,(213) 485-1751,8,33.95973995,-118.3114526
Parks,Carthay Circle Park,,,,McCarthy,Vis,,,,,Crescent Heights,,,"Los Angeles, CA 90048
(34.0614, -118.367)",CA,90048,http://www.laparks.org/dos/parks/facility/carthayCirclePk.htm,(323) 292-6622,5,34.061441,-118.367283
Tennis Courts,109th Street Tennis Courts,1464,,E,109th,St,,,,,,,,"Los Angeles, CA 90059
(33.9366, -118.249)",CA,90059,http://www.laparks.org/dos/reccenter/facility/109thStreetRC.htm,(323) 566-4561,15,33.93664647,-118.2489586
Tennis Courts,Barrington Tennis Courts,333,,S,Barrington,Ave,,,,,,,,"Los Angeles, CA 90049
(34.0614, -118.469)",CA,90049,http://www.laparks.org/dos/reccenter/facility/barringtonRC.htm,(310) 476-4866,11,34.06137723,-118.4686951
Recreation Centers,Baldwin Hills Recreation Center,5401,,,Highlight,Pl,,,,,,,,"Los Angeles, CA 90016
(34.0241, -118.364)",CA,90016,http://www.laparks.org/dos/reccenter/facility/baldwinHillsRC.htm,(323) 934-0746,10,34.024067,-118.364103
Parks,Lou Costello (Hostetter) Park,3141,,E,Olympic,Blvd,,,,,,,,"Los Angeles, CA 90023
(34.0205, -118.211)",CA,90023,http://www.laparks.org/dos/reccenter/facility/louCostelloRC.htm,(213) 485-9111,14,34.02048437,-118.2108829
Recreation Centers,Toberman Recreation Center,1725,,,Toberman,St,,,,,,,,"Los Angeles, CA 90015
(34.0391, -118.279)",CA,90015,http://www.laparks.org/dos/reccenter/facility/tobermanRC.htm,(213) 485-6896,1,34.03912821,-118.2787516
Recreation Centers,Ramona Gardens Recreation Center,2830,,,Lancaster,Ave,,,,,,,,"Los Angeles, CA 90033
(34.057, -118.195)",CA,90033,http://www.laparks.org/dos/reccenter/facility/ramonagardensRC.htm,(213) 847-2961,14,34.056954,-118.194894
Parks,Ross Snyder Park,1501,,E,41st,St,,,,,,,,"Los Angeles, CA 90011
(34.0087, -118.247)",CA,90011,http://www.laparks.org/dos/reccenter/facility/rossSnyderRC.htm,(323) 231-3964,9,34.00871681,-118.2473934
Outdoor Fitness Equipment,76th Street Pocket Park,833,,W,76th,St,,,,,,,,"Los Angeles, CA 90044
(33.971, -118.288)",CA,90044,,(310) 548-7675,8,33.971023,-118.288267
Public Computer Centers,Saint Andrews Recreation Center - Public Computer Center,8701,,,Saint Andrews,Pl,,,,,,,,"Los Angeles, CA 90047
(33.9588, -118.311)",CA,90047,http://www.laparks.org/btop/lynda.htm,(213) 485-1751,8,33.95882144,-118.3112791
Swimming Pools - Summer,Algin Sutton Pool,8800,,S,Hoover,St,,,,,,,,"Los Angeles, CA 90044
(33.9573, -118.287)",CA,90044,http://www.laparks.org/dos/aquatic/facility/alginSuttonPool.htm,(323) 789-2826,8,33.95731216,-118.2868671
Parks,Ramona Gardens Park,2830,,,Lancaster,Ave,,,,,,,,"Los Angeles, CA 90033
(34.057, -118.195)",CA,90033,http://www.laparks.org/dos/parks/facility/ramonaGardensPk.htm,(213) 847-2961,14,34.056954,-118.194894
Parks,Saint James Park,20,,S,St. James,Park,,,,,,,,"Los Angeles, CA 90007
(34.0317, -118.28)",CA,90007,http://www.laparks.org/dos/parks/facility/stJamesPk.htm,(310) 548-7675,1,34.03168,-118.27974
Universally Accessible Playgrounds,Benny H. Potter West Adams Avenues Memorial Park,2413,,,2nd,Ave,,,,,,,,"Los Angeles, CA 90018
(34.035, -118.319)",CA,90018,http://www.laparks.org/dos/parks/facility/bennyHPotterPk.htm,(323) 373-9483,10,34.035039,-118.318677
Tennis Courts,John Quimby Park Tennis Courts,7008,,,De Soto,Ave,,,,,,,,"Los Angeles, CA 91306
(34.1991, -118.588)",CA,91306,http://www.laparks.org/dos/parks/facility/quimbyJPk.htm,(818) 883-6641,3,34.199133,-118.5877
Recreation Centers,Jackie Tatum / Harvard Recreation Center,1535,,W,62nd,St,,,,,,,,"Los Angeles, CA 90047
(33.9386, -118.304)",CA,90047,http://www.laparks.org/dos/reccenter/facility/jackieTatumRC.htm,(323) 778-2579,8,33.93857,-118.303829
Skate Parks,Lafayette Skate Park,625,,S,Lafayette Park,Pl,,,,,,,,"Los Angeles, CA 90057
(34.0621, -118.283)",CA,90057,http://www.laparks.org/dos/parks/skateparks/lafayetteSkatePk.htm,(213) 384-0562,10,34.06211618,-118.282875
Parks,Washington Irving Pocket Park,4103,,W,Washington,Blvd,,,,,,,,"Los Angeles, CA 90018
(34.0401, -118.329)",CA,90018,http://www.laparks.org/dos/parks/facility/washingtonIrvingPk.htm,(310) 548-7675,10,34.040104,-118.328586
Tennis Courts,Lincoln Park Tennis Courts,3501,,,Valley,Blvd,,,,,,,,"Los Angeles, CA 90031
(34.0676, -118.199)",CA,90031,http://www.laparks.org/dos/reccenter/facility/lincolnParkRC.htm,(213) 847-1726,1,34.067618,-118.199275
Outdoor Fitness Equipment,James Slauson Recreation Center,5306,,S,Compton,Ave,,,,,,,,"Los Angeles, CA 90011
(33.9942, -118.248)",CA,90011,http://www.laparks.org/dos/reccenter/facility/slausonMC.htm,(323) 233-1174,9,33.994156,-118.247682
Parks,South L.A. Wetlands Park,5413,,S,Avalon,Blvd,,,,,,,,"Los Angeles, CA 90011
(33.9933, -118.265)",CA,90011,,(310) 548-7675,9,33.993268,-118.265355
Parks,Toberman Park,1725,,,Toberman,St,,,,,,,,"Los Angeles, CA 90015
(34.0391, -118.279)",CA,90015,http://www.laparks.org/dos/reccenter/facility/tobermanRC.htm,(213) 485-6896,1,34.03912821,-118.2787516
Parks,MacArthur Park,2230,,W,6th,St,,,,,,,,"Los Angeles, CA 90057
(34.0604, -118.277)",CA,90057,http://www.laparks.org/dos/parks/facility/macArthurPk.htm,(213) 368-0520,1,34.06035058,-118.2770864
Parks,Angeles Mesa Park,4726,,W,8th,Ave,,,,,,,,"Los Angeles, CA 90043
(34.0003, -118.326)",CA,90043,http://www.laparks.org/dos/parks/facility/angelesMesaPk.htm,(310) 548-7675,8,34.00025,-118.32561
Public Computer Centers,Downey Youth Center - Public Computer Center,219,,S,Ave 18,,,,,,,,,"Los Angeles, CA 90031
(34.0709, -118.222)",CA,90031,http://www.laparks.org/btop/lynda.htm,(323) 225-7100,1,34.070938,-118.222326
Outdoor Fitness Equipment,Wall Street Community Park,8620,,,Wall,St,,,,,,,,"Los Angeles, CA 90003
(33.9595, -118.272)",CA,90003,,,9,33.959532,-118.271566
Senior Centers,Mount Carmel Senior Citizen Center,7020,,S,Figueroa,St,,,,,,,,"Los Angeles, CA 90003
(33.9759, -118.283)",CA,90003,http://www.laparks.org/dos/senior/facility/mountCarmelSCC.htm,(323) 758-8716,8,33.97586797,-118.2825128
Tennis Courts,Rancho Cienega - Arthur Ashe Tennis Courts,5001,,,Rodeo,Rd,,,,,,,,"Los Angeles, CA 90016
(34.0219, -118.35)",CA,90016,http://www.laparks.org/dos/sports/tennis/facility/arthurasheTC.htm,(323) 290-3141,10,34.02193,-118.34971
Outdoor Fitness Equipment,Norman O. Houston Park,4800,,S,La Brea,Ave,,,,,,,,"Los Angeles, CA 90008
(33.9989, -118.358)",CA,90008,http://www.laparks.org/dos/parks/facility/houstonNOPk.htm,(323) 291-5928,8,33.998907,-118.357772
Recreation Centers,South Park Recreation Center,345,,E,51st,St,,,,,,,,"Los Angeles, CA 90011
(33.9974, -118.268)",CA,90011,http://www.laparks.org/dos/reccenter/facility/southPkRC.htm,(213) 847-6746,9,33.997417,-118.267651
Recreation Centers,Rancho Cienega - Ira C. Massey Youth Center,5001,,,Rodeo,Rd,,,,,,,,"Los Angeles, CA 90016
(34.0224, -118.351)",CA,90016,http://www.laparks.org/dos/reccenter/facility/ranchocienegaRC.htm,(323) 290-2330,10,34.02235,-118.350784
Recreation Centers,Ramon D. Garcia Msgr. Recreation Center,1016,,S,Fresno,St,,,,,,,,"Los Angeles, CA 90023
(34.0275, -118.207)",CA,90023,http://www.laparks.org/dos/reccenter/facility/ramonGarciaRC.htm,(323) 265-4755,14,34.027534,-118.206502
Recreation Centers,Ramona Hall Community Center,4580,,N,Figueroa,St,,,,,,,,"Los Angeles, CA 90065
(34.0979, -118.205)",CA,90065,http://www.laparks.org/dos/reccenter/facility/ramonahallCRC.htm,(323) 276-3021,1,34.097865,-118.205115
Recreation Centers,Elysian Valley Recreation Center,1811,,,Ripple,St,,,,,,,,"Los Angeles, CA 90039
(34.0991, -118.245)",CA,90039,http://www.laparks.org/dos/reccenter/facility/elysianValleyRC.htm,(323) 666-5058,13,34.099148,-118.245058
Parks,Rolland Curtis Park,1287,,W,38th,St,,,,,,,,"Los Angeles, CA 90037
(34.0166, -118.3)",CA,90037,http://www.laparks.org/dos/parks/facility/curtisRolandPk.htm,(310) 548-7675,8,34.016615,-118.300007
Parks,Moon Canyon Park,911,,N,Museum,Dr,,,,,,,,"Los Angeles, CA 90065
(34.1084, -118.214)",CA,90065,http://www.laparks.org/dos/parks/facility/moonCynPk.htm,(323) 225-0370,1,34.108427,-118.213926
Parks,4916 S. McKinley Avenue Pocket Park,4916,2-Jan,S,McKinley,Ave,,,,,,,,"Los Angeles, CA 90011
(33.9988, -118.261)",CA,90011,,(310) 548-7675,9,33.998755,-118.260624
Outdoor Fitness Equipment,Garvanza Park,6240,,,Meridian,St,,,,,,,,"Los Angeles, CA 90042
(34.1201, -118.18)",CA,90042,http://www.laparks.org/dos/parks/facility/garvanzaPk.htm,(323) 255-0370,14,34.12007,-118.179944
Parks,Leslie N. Shaw Park,2250,,W,Jefferson,Blvd,,,,,,,,"Los Angeles, CA 90018
(34.0258, -118.32)",CA,90018,http://www.laparks.org/dos/parks/facility/shawLNPk.htm,(323) 233-4772,10,34.025814,-118.319733
Recreation Centers,Alpine Recreation Center,817,,,Yale,St,,,,,,,,"Los Angeles, CA 90012
(34.0637, -118.241)",CA,90012,http://www.laparks.org/dos/reccenter/facility/alpineRC.htm,(213) 485-5448,1,34.06372912,-118.240742
Parks,Juntos Park,3135,,,Drew,St,,,,,,,,"Los Angeles, CA 90064
(34.1183, -118.246)",CA,90064,http://www.laparks.org/dos/parks/facility/juntosPk.htm,(213) 485-1310,13,34.11830364,-118.2455792
Outdoor Fitness Equipment,61st Street Pocket Park,139,,E,61,St,,,,,,,,"Los Angeles, CA 90003
(33.9845, -118.272)",CA,90003,,(310) 548-7675,9,33.984504,-118.272468
Parks,Garvanza Park,6240,,,Meridian,St,,,,,,,,"Los Angeles, CA 90042
(34.1201, -118.18)",CA,90042,http://www.laparks.org/dos/parks/facility/garvanzaPk.htm,(323) 255-0370,14,34.12007,-118.179944
Parks,Westchester Park,7000,,W,Manchester,Ave,,,,,,,,"Los Angeles, CA 90045
(33.9596, -118.415)",CA,90045,http://www.laparks.org/dos/reccenter/facility/westchesterRC.htm,(310) 670-7473,11,33.959629,-118.415188
Recreation Centers,Glassell Park Recreation Center,3650,,,Verdugo,Rd,,,,,,,,"Los Angeles, CA 90065
(34.1162, -118.234)",CA,90065,http://www.laparks.org/dos/reccenter/facility/glassellParkRC.htm,(323) 257-1863,1,34.116158,-118.233593
Recreation Centers,Algin Sutton Recreation Center,8800,,S,Hoover,St,,,,,,,,"Los Angeles, CA 90044
(33.9578, -118.286)",CA,90044,http://www.laparks.org/dos/reccenter/facility/alginSuttonRC.htm,(323) 753-5808,8,33.957778,-118.285546
Senior Centers,EXPO Center / Ahmanson Senior Citizen Center,3990,,,Bill Robertson,Ln,,,,,,,,"Los Angeles, CA 90037
(34.0116, -118.29)",CA,90037,http://www.laparks.org/dos/senior/facility/ahmansonEPICC.htm,(213) 763-0118,9,34.011553,-118.289849
Senior Centers,Lou Costello (Hostetter) Senior Citizen Center,3121,,E,Olympic,Blvd,,,,,,,,"Los Angeles, CA 90023
(34.0208, -118.211)",CA,90023,http://www.laparks.org/dos/senior/facility/costelloSCC.htm,(213) 485-9143,14,34.020799,-118.210992
Lakes,Ernest E. Debs Lake,4235,,,Monterey,Rd,,,,,,,,"Los Angeles, CA 90032
(34.0915, -118.194)",CA,90032,http://www.laparks.org/dos/aquatic/facility/debslake.htm,(213) 485-5054,1,34.091471,-118.193514
Parks,Budd Weiner Park,4301,,,Via Marisol,,,,,,Via Colina,,,"Los Angeles, CA 90032
(34.0979, -118.184)",CA,90032,http://www.laparks.org/dos/parks/facility/buddWeinerPk.htm,(323) 225-3329,14,34.09794,-118.18389
Parks,105th Street Pocket Park,609,,W,105th,St,,,,,,,,"Los Angeles, CA 90044
(33.9409, -118.285)",CA,90044,,(310) 548-7675,8,33.940919,-118.285253
Public Computer Centers,Cypress Recreation Center - Public Computer Center,2630,,,Pepper,Ave,,,,,,,,"Los Angeles, CA 90065
(34.0894, -118.226)",CA,90065,http://www.laparks.org/btop/lynda.htm,(213) 485-5384,1,34.0894357,-118.2255846
Parks,San Vicente Mountain Park,17500,,,Mulholland,Dr,,,,,,,,"Los Angeles, CA 90272
(34.1286, -118.513)",CA,90272,http://www.laparks.org/dos/parks/facility/sanVicenteMtnPk.htm,(310) 840-2187,11,34.128635,-118.513031
Parks,City Hall Park,200,,N,Spring,St,,,,,,,,"Los Angeles, CA 90012
(34.053, -118.244)",CA,90012,http://www.laparks.org/dos/parks/facility/cityHallPk.htm,(213) 972-0500,14,34.05305,-118.243749
Tennis Courts,Hazard Tennis Courts,2230,,,Norfolk,St,,,,,,,,"Los Angeles, CA 90033
(34.0607, -118.201)",CA,90033,http://www.laparks.org/dos/reccenter/facility/hazardRC.htm,(213) 485-6839,14,34.06067723,-118.2008547
Parks,South Park,345,,E,51st,St,,,,,,,,"Los Angeles, CA 90011
(33.9966, -118.269)",CA,90011,http://www.laparks.org/dos/reccenter/facility/southPkRC.htm,(213) 847-6746,9,33.99664406,-118.268573
Public Computer Centers,Jordan Downs Recreation Center - Public Computer Center,9900,,,Grape,St,,,,,,,,"Los Angeles, CA 90002
(33.9461, -118.237)",CA,90002,http://www.laparks.org/btop/lynda.htm,(213) 485-1835,15,33.94612146,-118.2365773
Parks,Griffith Park - Park Center,4730,,,Crystal Springs,Dr,,,,,,,,"Los Angeles, CA 90027
(34.1342, -118.283)",CA,90027,http://www.laparks.org/dos/parks/facility/parkCenter.htm,(323) 644-2050,4,34.134213,-118.282994
Recreation Centers,Palms Recreation Center,2950,,,Overland,Ave,,,,,,,,"Los Angeles, CA 90064
(34.0329, -118.418)",CA,90064,http://www.laparks.org/dos/reccenter/facility/palmsRC.htm,(310) 838-3838,5,34.03286932,-118.4177271
Tennis Courts,Jackie Tatum / Harvard Tennis Courts,1535,,W,62nd,St,,,,,,,,"Los Angeles, CA 90047
(33.9833, -118.304)",CA,90047,http://www.laparks.org/dos/reccenter/facility/jackieTatumRC.htm,(323) 778-2579,8,33.98334823,-118.303593
Public Computer Centers,Rancho Cienega Sports Center - Public Computer Center,5001,,,Rodeo,Rd,,,,,,,,"Los Angeles, CA 90016
(34.0222, -118.352)",CA,90016,http://www.laparks.org/btop/lynda.htm,(323) 290-2663,10,34.022242,-118.351645
Parks,Norman O. Houston Park,4800,,S,La Brea,Ave,,,,,,,,"Los Angeles, CA 90008
(33.9989, -118.358)",CA,90008,http://www.laparks.org/dos/parks/facility/houstonNOPk.htm,(323) 291-5928,8,33.998907,-118.357772
Outdoor Fitness Equipment,Pan Pacific Park,7600,,,Beverly,Blvd,,,,,,,,"Los Angeles, CA 90036
(34.0749, -118.355)",CA,90036,http://www.laparks.org/dos/parks/facility/panPacificPk.htm,(323) 939-8874,4,34.07487935,-118.3549473
Parks,Madison West Park,464,,N,Madison,Ave,,,,,,,,"Los Angeles, CA 90004
(34.0797, -118.289)",CA,90004,http://www.laparks.org/dos/parks/facility/madisonPk.htm,(323) 664-1407,13,34.079685,-118.288537
Public Computer Centers,Glassell Park Youth Center -  Public Computer Center,2727,,,Crestmore,Pl,,,,,,,,"Los Angeles, CA 90065
(34.1148, -118.234)",CA,90065,http://www.laparks.org/btop/lynda.htm,(323) 341-5681,1,34.11484802,-118.233719
Parks,Wall Street Community Park,8620,,,Wall,St,,,,,,,,"Los Angeles, CA 90003
(33.9595, -118.272)",CA,90003,,,9,33.959532,-118.271566
Recreation Centers,Highland Park Recreation Center,6150,,,Piedmont,Ave,,,,,,,,"Los Angeles, CA 90042
(34.1132, -118.188)",CA,90042,http://www.laparks.org/dos/reccenter/facility/highlandParkRC.htm,(213) 847-4875,1,34.113209,-118.187806
Swimming Pools - Year Round,Fremont High School Indoor Pool,7630,,,Towne,Ave,,,,,,,,"Los Angeles, CA 90003
(33.9705, -118.267)",CA,90003,http://www.laparks.org/dos/aquatic/facility/fremontPool.htm,(213) 847-3401,9,33.97048775,-118.2672221
Recreation Centers,EXPO Center / Ralph M. Parsons Preschool,841,,,Martin Luther King,Blvd,,,,,,,,"Los Angeles, CA 90037
(34.0116, -118.289)",CA,90037,http://www.laparks.org/dos/childcare/facility/ralphMParsonCC.htm,(213) 763-3100,9,34.0116,-118.288775
Parks,Pershing Square,530,,S,Olive,St,,,,,,,,"Los Angeles, CA 90012
(34.0486, -118.253)",CA,90012,http://www.laparks.org/pershingsquare/index.html,(213) 847-4970,14,34.04856,-118.25348
Rental Facilities,Friendship Auditorium,3201,,,Riverside,Dr,,,,,,,,"Los Angeles, CA 90027
(34.1142, -118.269)",CA,90027,http://www.laparks.org/dos/reservations/friendshipauditorium.htm,(323) 665-1154,4,34.114185,-118.268981
Parks,Normandie Park,1550,,S,Normandie,Ave,,,,,,,,"Los Angeles, CA 90006
(34.0446, -118.3)",CA,90006,http://www.laparks.org/dos/reccenter/facility/normandieRC.htm,(323) 737-1181,1,34.04455488,-118.3001516
Parks,Hoover-Gage Mini Park,,,,Hoover,St,,,,,Gage,St,,"Los Angeles, CA 90044
(33.9822, -118.287)",CA,90044,http://www.laparks.org/dos/parks/facility/hooverGagePk.htm,(213) 346-7395,9,33.982185,-118.287465
Swimming Pools - Year Round,EXPO Center / LA 84 / John C. Argue Swim Stadium,3980,,,Bill Robertson,Ln,,,,,,,,"Los Angeles, CA 90037
(34.0122, -118.29)",CA,90037,http://www.laparks.org/dos/aquatic/facility/aaf_JohnArguePool.htm,(213) 763-0129,9,34.012241,-118.290106
Recreation Centers,Hazard Recreation Center,2230,,,Norfolk,St,,,,,,,,"Los Angeles, CA 90033
(34.0603, -118.201)",CA,90033,http://www.laparks.org/dos/reccenter/facility/hazardRC.htm,(213) 485-6839,14,34.060295,-118.200702
Recreation Centers,Hollywood Recreation Center,1122,,,Cole,Ave,,,,,,,,"Los Angeles, CA 90038
(34.0917, -118.33)",CA,90038,http://www.laparks.org/dos/reccenter/facility/hollywoodRC.htm,(323) 467-6847,13,34.091656,-118.329641
Parks,Ramona Hall Park,4580,,N,Figueroa,St,,,,,,,,"Los Angeles, CA 90065
(34.0977, -118.206)",CA,90065,http://www.laparks.org/dos/reccenter/facility/ramonahallCRC.htm,(323) 276-3021,1,34.09770325,-118.2058522
Parks,Lacy Street Neighborhood Park,,,,Ave 26,,,,,,Lacy,St,,"Los Angeles, CA 90031
(34.0821, -118.22)",CA,90031,http://www.laparks.org/dos/parks/facility/lacyStNeighborHoPk.htm,(323) 225-3329,1,34.082073,-118.220347
Parks,Hollenbeck Park,415,,S,Saint Louis,St,,,,,,,,"Los Angeles, CA 90033
(34.0414, -118.216)",CA,90033,http://www.laparks.org/dos/parks/facility/hollenbeckPk.htm,(323) 261-0113,14,34.04136456,-118.2160944
Outdoor Fitness Equipment,Dorothy J. and Benjamin B. Smith Park,7020,,,Franklin,Ave,,,,,,,,"Los Angeles, CA 90028
(34.104, -118.343)",CA,90028,http://www.laparks.org/dos/parks/facility/smithDBPk.htm,(213) 847-3599,13,34.10399621,-118.3428203
Recreation Centers,Bradley-Milken Youth And Family Center,1773,,E,Century,Blvd,,,,,,,,"Los Angeles, CA 90002
(33.9458, -118.241)",CA,90002,http://www.laparks.org/dos/reccenter/facility/bradleyMilken.htm,(213) 473-3607,15,33.945785,-118.24107
Golf Courses,Armand Hammer / Holmby Pitch and Putt Golf Course,601,,,Club View,Dr,,,,,,,,"Los Angeles, CA 90024
(34.0729, -118.429)",CA,90024,http://www.golf.lacity.org/cdp_holmby.htm,(310) 276-1604,5,34.07294331,-118.4293956
Dog Parks,Silver Lake Dog Park,1850,,W,Silver Lake,Dr,,,,,,,,"Los Angeles, CA 90026
(34.0922, -118.265)",CA,90026,http://www.laparks.org/dos/parks/facility/dogparks/silverLakeDogPk.htm,(323) 644-3946,13,34.092198,-118.264594
Gardens,Rose Hill Park Community Garden,3606,,N,Boundary,Ave,,,,,,,,"Los Angeles, CA 90032
(34.091, -118.193)",CA,90032,,(323) 225-0450,14,34.090977,-118.193047
Public Computer Centers,Van Ness Recreation Center - Public Computer Center,5720,,,2nd,Ave,,,,,,,,"Los Angeles, CA 90043
(33.9908, -118.319)",CA,90043,http://www.laparks.org/btop/lynda.htm,(323) 290-3130,8,33.99082417,-118.319119
Parks,49th Street Pocket Park,670,,E,49th,St,,,,,,,,"Los Angeles, CA 90011
(33.9983, -118.264)",CA,90011,,(310) 548-7675,9,33.998337,-118.26351
Swimming Pools - Summer,Miguel Contreras Learning Center Pool,322,,S,Lucas,Ave,,,,,,,,"Los Angeles, CA 90017
(34.058, -118.262)",CA,90017,,(310) 548-7675,1,34.057959,-118.261637
Recreation Centers,Evergreen Youth Center,211,,S,Evergreen,Ave,,,,,,,,"Los Angeles, CA 90033
(34.0388, -118.204)",CA,90033,http://www.laparks.org/dos/reccenter/facility/evergreenRC.htm,(323) 263-2816,14,34.038819,-118.204026
Parks,Lincoln Heights Park,2303,,,Workman,St,,,,,,,,"Los Angeles, CA 90031
(34.0722, -118.215)",CA,90031,http://www.laparks.org/dos/reccenter/facility/lincolnHeightsRC.htm,(323) 225-2838,1,34.072219,-118.214628
Tennis Courts,Cheviot Hills Tennis Courts,2551,,,Motor,Ave,,,,,,,,"Los Angeles, CA 90064
(34.0445, -118.406)",CA,90064,http://www.laparks.org/dos/sports/tennis/facility/cheviotHillsTC.htm,(310) 836-8879,5,34.044504,-118.406333
Recreation Centers,Mount Carmel Recreation Center,830,,W,70th,St,,,,,,,,"Los Angeles, CA 90044
(33.976, -118.288)",CA,90044,http://www.laparks.org/dos/reccenter/facility/mountCarmelRC.htm,(323) 789-2756,8,33.975985,-118.287763
Parks,Rockwood Community Park,1571,,W,Rockwood,St,,,,,,,,"Los Angeles, CA 90026
(34.0642, -118.262)",CA,90026,,(310) 548-7675,13,34.0642,-118.262115
Universally Accessible Playgrounds,Wilshire Crest Elementary School Universal Access Playground,5241,,W,Olympic,Blvd,,,,,,,,"Los Angeles, CA 90036
(34.058, -118.344)",CA,90036,http://www.laparks.org/dos/playground/facility/wilshireUAPk.htm,(213) 485-5572,4,34.057987,-118.343595
Outdoor Fitness Equipment,Toberman Recreation Center,1725,,,Toberman,St,,,,,,,,"Los Angeles, CA 90015
(34.0391, -118.279)",CA,90015,http://www.laparks.org/dos/reccenter/facility/tobermanRC.htm,(213) 485-6896,1,34.03912821,-118.2787516
Recreation Centers,Saint Andrews Recreation Center,8701,,,Saint Andrews,Pl,,,,,,,,"Los Angeles, CA 90047
(33.9588, -118.311)",CA,90047,http://www.laparks.org/dos/reccenter/facility/StAndrewsRC.htm,(213) 485-1751,8,33.95882144,-118.3112791
Outdoor Fitness Equipment,El Sereno Arroyo Playground,5520,,,Concord,Ave,,,,,,,,"Los Angeles, CA 90032
(34.0798, -118.162)",CA,90032,,(323) 223-2764,14,34.07980496,-118.1618492
Skate Parks,William Nickerson Gardens Skate Park,11251,,,Compton,Ave,,,,,,,,"Los Angeles, CA 90059
(33.9322, -118.247)",CA,90059,http://www.laparks.org/dos/parks/skateparks/nickersonSkatePk.htm,(323) 566-1416,15,33.932182,-118.246727
Parks,Jordan Downs Park,9900,,,Grape,St,,,,,,,,"Los Angeles, CA 90002
(33.9461, -118.237)",CA,90002,http://www.laparks.org/dos/reccenter/facility/jordanDownsRC.htm,(213) 485-1835,15,33.94612146,-118.2365773
Parks,Elysian Park - Chavez Ravine Arboretum,,,,Elysian Park,Dr,,,,,Chavez Ravine,Rd,,"Los Angeles, CA 90012
(34.085, -118.246)",CA,90012,http://www.laparks.org/dos/horticulture/chavez.htm,(213) 485-5054,13,34.085043,-118.245717
Parks,Runyon Canyon Park,2000,,N,Fuller,Ave,,,,,,,,"Los Angeles, CA 90046
(34.1053, -118.349)",CA,90046,http://www.laparks.org/dos/parks/facility/runyoncanyonpk.htm,(323) 666-5046,4,34.10530646,-118.3488732
Outdoor Fitness Equipment,97th Street Pocket Park,554,,W,97th,St,,,,,,,,"Los Angeles, CA 90010
(33.948, -118.285)",CA,90010,,(310) 548-7675,8,33.948036,-118.2847
Swimming Pools - Summer,South Park Pool,345,,E,51st,St,,,,,,,,"Los Angeles, CA 90011
(33.9974, -118.268)",CA,90011,http://www.laparks.org/dos/aquatic/facility/southParkPool.htm,(323) 846-5366,9,33.997435,-118.267884
Parks,Mar Vista Park,11430,,,Woodbine,Ave,,,,,,,,"Los Angeles, CA 90066
(34.0179, -118.429)",CA,90066,http://www.laparks.org/dos/reccenter/facility/marVistaRC.htm,(310) 398-5982,11,34.01785493,-118.4294632
Recreation Centers,Bellevue Recreation Center,826,,,Lucille,Ave,,,,,,,,"Los Angeles, CA 90026
(34.084, -118.283)",CA,90026,http://www.laparks.org/dos/reccenter/facility/bellevueRC.htm,(323) 664-2468,13,34.084023,-118.282906
Recreation Centers,Lincoln Heights Recreation Center,2303,,,Workman,St,,,,,,,,"Los Angeles, CA 90031
(34.0722, -118.215)",CA,90031,http://www.laparks.org/dos/reccenter/facility/lincolnHeightsRC.htm,(323) 225-2838,1,34.072219,-118.214628
Parks,Gladys Jean Wesson Park,2508,,S,West,Blvd,,,,,,,,"Los Angeles, CA 90016
(34.0338, -118.34)",CA,90016,,,10,34.033847,-118.340309
Recreation Centers,Westchester Recreation Center,7000,,W,Manchester,Ave,,,,,,,,"Los Angeles, CA 90045
(33.9596, -118.414)",CA,90045,http://www.laparks.org/dos/reccenter/facility/westchesterRC.htm,(310) 670-7473,11,33.95956137,-118.4138213
Outdoor Fitness Equipment,Fred Roberts Recreation Center,4700,,S,Honduras,St,,,,,,,,"Los Angeles, CA 90011
(34.0009, -118.244)",CA,90011,http://www.laparks.org/dos/reccenter/facility/fredRobertsRC.htm,(323) 234-8650,9,34.000886,-118.24401
Parks,Glen Alla Park,4601,,,Alla,Rd,,,,,,,,"Los Angeles, CA 90292
(33.9844, -118.431)",CA,90292,http://www.laparks.org/dos/parks/facility/glenAllaPk.htm,(310) 396-1615,11,33.984438,-118.431009
Parks,Boyle Heights Sports Center Park,933,,S,Mott,St,,,,,,,,"Los Angeles, CA 90023
(34.0324, -118.214)",CA,90023,http://www.laparks.org/dos/reccenter/facility/boyleHeightsSC.htm,(323) 264-5136,14,34.03237744,-118.213784
Parks,Rio De Los Angeles State Park,1900,,N,San Fernando,Rd,,,,,,,,"Los Angeles, CA 90065
(34.1011, -118.237)",CA,90065,http://www.laparks.org/dos/reccenter/facility/riodeLosAngeles.htm,(323) 276-3015,1,34.101135,-118.236579
Tennis Courts,Eagle Rock Tennis Courts,1100,,,Eagle Vista,Dr,,,,,,,,"Los Angeles, CA 90041
(34.1428, -118.186)",CA,90041,http://www.laparks.org/dos/reccenter/facility/eagleRockRC.htm,(323) 257-6948,14,34.142774,-118.186455
Universally Accessible Playgrounds,Griffith Park - Shane's Inspiration Park,4730,,,Crystal Springs,Dr,,,,,,,,"Los Angeles, CA 90027
(34.1351, -118.285)",CA,90027,http://www.laparks.org/dos/playground/facility/griffithUAPk.htm,(323) 913-4688,4,34.135083,-118.284647
Museums,Griffith Park - Ferndell Nature Museum / Gardens,5375,,,Red Oak,Dr,,,,,,,,"Los Angeles, CA 90027
(34.1127, -118.307)",CA,90027,http://www.laparks.org/dos/parks/griffithpk/ferndell.htm,(323) 666-5046,4,34.112664,-118.307353
Senior Centers,Lincoln Park Senior Citizen Center,3501,,,Valley,Blvd,,,,,,,,"Los Angeles, CA 90031
(34.0661, -118.199)",CA,90031,http://www.laparks.org/dos/senior/facility/lincolnParkSCC.htm,(213) 847-1726,1,34.0661,-118.199196
Recreation Centers,State Street Recreation Center,716,,N,State,St,,,,,,,,"Los Angeles, CA 90033
(34.0531, -118.213)",CA,90033,http://www.laparks.org/dos/reccenter/facility/stateStreetRC.htm,(213) 847-2790,14,34.053064,-118.212879
Parks,Barnsdall Park,4800,,,Hollywood,Blvd,,,,,,,,"Los Angeles, CA 90027
(34.1015, -118.294)",CA,90027,http://www.laparks.org/dos/reccenter/facility/barnsdallArtPkRC.htm,(323) 644-6275,13,34.10151763,-118.29443
Universally Accessible Playgrounds,Westside Neighborhood Park,3085,,,Clyde,Ave,,,,,,,,"Los Angeles, CA 90016
(34.0291, -118.37)",CA,90016,http://www.laparks.org/dos/parks/facility/westsideNeighborhoodPk.htm,(323) 292-6622,10,34.029093,-118.36998
Tennis Courts,El Sereno Tennis Courts,4721,,,Klamath,St,,,,,,,,"Los Angeles, CA 90032
(34.0757, -118.182)",CA,90032,http://www.laparks.org/dos/reccenter/facility/elserenoRC.htm,(323) 225-3517,14,34.075723,-118.181788
Public Computer Centers,EXPO Center / Ahmanson Senior Citizen Center - Public Computer Center,3990,,,Bill Robertson,Ln,,,,,,,,"Los Angeles, CA 90037
(34.0116, -118.29)",CA,90037,http://www.laparks.org/btop/lynda.htm,(213) 763-0118,9,34.011553,-118.289849
Parks,Griffith Park Bond Area,,,,Los Feliz,Blvd,,,,,,,,"Los Angeles, CA 90027
(34.1225, -118.27)",CA,90027,http://www.laparks.org/dos/parks/facility/bondAreaGP.htm,(323) 664-6611,4,34.122473,-118.269555
Parks,El Sereno North Park,4410,,,Garden Homes,Ave,,,,,,,,"Los Angeles, CA 90032
(34.0972, -118.168)",CA,90032,http://www.laparks.org/dos/parks/facility/elSerenoNorthPk.htm,(323) 225-3517,14,34.097182,-118.16843
Recreation Centers,Echo Park Youth Center,515,,,Laveta,Ter,,,,,,,,"Los Angeles, CA 90026
(34.0683, -118.259)",CA,90026,http://www.laparks.org/dos/reccenter/facility/echoParkRC.htm,(213) 240-3006,1,34.068302,-118.258827
Recreation Centers,Glassell Park Youth Center,2727,,,Crestmore,Pl,,,,,,,,"Los Angeles, CA 90065
(34.1148, -118.234)",CA,90065,http://www.laparks.org/dos/reccenter/facility/glassellParkRC.htm,(323) 341-5681,1,34.11484802,-118.233719
Recreation Centers,Jim Gilliam Child Care Center,4000,,S,La Brea,Ave,,,,,,,,"Los Angeles, CA 90008
(34.0123, -118.353)",CA,90008,http://www.laparks.org/dos/childcare/facility/jimGilliamCC.htm,(323) 291-5929,10,34.01227,-118.352773
Parks,West Adams Heights Park,1903,,,Cordova,St,,,,,,,,"Los Angeles, CA 90007
(34.0388, -118.3)",CA,90007,,,10,34.03883,-118.300475
Parks,Griffith Park - Ferraro Fields,5101,,N,Zoo,Dr,,,,,,,,"Los Angeles, CA 90027
(34.1546, -118.283)",CA,90027,http://www.laparks.org/dos/parks/facility/griffithPk_Ffields.htm,(213) 485-7611,4,34.154599,-118.28301
Senior Centers,Watts Senior Citizen Center,1657,,E,Century,Blvd,,,,,,,,"Los Angeles, CA 90002
(33.9463, -118.244)",CA,90002,http://www.laparks.org/dos/senior/facility/wattsSCC.htm,(323) 564-9440,15,33.94634,-118.24394
Parks,Mascot Park,,,,Mascot,St,,,,,Pickford,St,,"Los Angeles, CA 90019
(34.041, -118.342)",CA,90019,http://www.laparks.org/dos/parks/facility/mascotPk.htm,(310) 548-7675,10,34.041023,-118.341882
Senior Centers,Westchester Senior Citizen Center,8740,,,Lincoln,Blvd,,,,,,,,"Los Angeles, CA 90045
(33.9587, -118.417)",CA,90045,http://www.laparks.org/dos/senior/facility/westchesterSCC.htm,(310) 649-3317,11,33.958727,-118.41738
Golf Courses,Golf Reservations--All Courses,3900,,W,Chevy Chase,Dr,,,,,,,,"Los Angeles, CA 90039
(34.1333, -118.273)",CA,90039,http://www.laparks.org/golf/reservations.htm,(818) 291-9980,13,34.13325553,-118.2728568
Senior Centers,Griffith Park Adult Community Center,3203,,,Riverside,Dr,,,,,,,,"Los Angeles, CA 90027
(34.1142, -118.269)",CA,90027,http://www.laparks.org/dos/senior/facility/griffithParkAdultCC.htm,(323) 644-5579,4,34.114167,-118.26892
Senior Centers,Boyle Heights Senior Citizen Center,2839,,E,3rd,St,,,,,,,,"Los Angeles, CA 90033
(34.039, -118.205)",CA,90033,http://www.laparks.org/dos/senior/facility/boyleHeightsSCC.htm,(323) 264-5757,14,34.038982,-118.205488
Tennis Courts,Elysian Park Tennis Courts,929,,,Academy,Rd,,,,,,,,"Los Angeles, CA 90012
(34.0797, -118.236)",CA,90012,,(213) 485-5054,13,34.079661,-118.236145
Tennis Courts,Jim Gilliam Tennis Courts,4000,,S,La Brea,Ave,,,,,,,,"Los Angeles, CA 90008
(34.0143, -118.355)",CA,90008,http://www.laparks.org/dos/reccenter/facility/jimGilliamRC.htm,(323) 291-5928,10,34.014327,-118.355029
Parks,Wilton Place Park,1015,,S,Wilton,Pl,,,,,,,,"Los Angeles, CA 90019
(34.0524, -118.315)",CA,90019,,(213) 485-5572,10,34.052376,-118.314667
Recreation Centers,LACES (Los Angeles Center for Enriched Studies),5931,,W,18th,St,,,,,,,,"Los Angeles, CA 90035
(34.0436, -118.371)",CA,90035,http://www.laparks.org/dos/reccenter/facility/laces.htm,(323) 933-8343,10,34.04361628,-118.3714542
Parks,Central Avenue Pocket Park,,,,Central,Ave,,,,,42nd,Ave,,"Los Angeles, CA 90011
(34.0068, -118.256)",CA,90011,http://www.laparks.org/dos/parks/facility/centralAvePk.htm,(323) 233-4772,9,34.006792,-118.256194
Public Computer Centers,South Seas House - Public Computer Center,2301,,W,24th,St,,,,,Arlington,Ave,,"Los Angeles, CA 90018
(34.035, -118.318)",CA,90018,http://www.laparks.org/btop/lynda.htm,(323) 373-9483,10,34.03499817,-118.3179553
Public Computer Centers,Echo Park Youth Center - Public Computer Center,515,,,Laveta,Ter,,,,,,,,"Los Angeles, CA 90026
(34.0683, -118.259)",CA,90026,http://www.laparks.org/btop/lynda.htm,(213) 240-3006,1,34.068302,-118.258827
Parks,Griffith Park - Bird Sanctuary,2900,,,Vermont Canyon,Rd,,,,,,,,"Los Angeles, CA 90027
(34.1238, -118.297)",CA,90027,http://www.laparks.org/dos/parks/facility/birdSanctuaryGP.htm,(323) 666-5046,4,34.123792,-118.297042
Universally Accessible Playgrounds,Pan Pacific Park - Renee's Place,7600,,,Beverly,Blvd,,,,,,,,"Los Angeles, CA 90036
(34.0749, -118.355)",CA,90036,http://www.laparks.org/dos/playground/facility/panPacificUAPPk.htm,(323) 939-8874,4,34.07487935,-118.3549473
Public Computer Centers,Pan Pacific Senior Activity Center - Public Computer Center,141,,S,Gardner,St,,,,,,,,"Los Angeles, CA 90036
(34.0723, -118.354)",CA,90036,http://www.laparks.org/btop/lynda.htm,(323) 935-5705,4,34.072251,-118.353683
Swimming Pools - Summer,Pan Pacific Park Pool,141,,S,Gardner,St,,,,,,,,"Los Angeles, CA 90036
(34.072, -118.353)",CA,90036,http://www.laparks.org/dos/aquatic/facility/panPacificPool.htm,(323) 957-4524,4,34.072028,-118.353361
Recreation Centers,Robertson Recreation Center,1641,,,Preuss,Rd,,,,,,,,"Los Angeles, CA 90035
(34.0493, -118.385)",CA,90035,http://www.laparks.org/dos/reccenter/facility/robertsonRC.htm,(310) 278-5383,5,34.0492868,-118.3847196
Parks,State Street Park,716,,N,State,St,,,,,,,,"Los Angeles, CA 90033
(34.053, -118.213)",CA,90033,http://www.laparks.org/dos/reccenter/facility/stateStreetRC.htm,(213) 847-2790,14,34.05296422,-118.2132892
Museums,Griffith Observatory,2800,,E,Observatory,Rd,,,,,,,,"Los Angeles, CA 90027
(34.1184, -118.3)",CA,90027,http://griffithobservatory.org/,(213) 473-0800,4,34.118429,-118.300374
Tennis Courts,Hermon / Arroyo Seco Tennis Courts,5566,,,Via Marisol,,,,,,,,,"Los Angeles, CA 90042
(34.1044, -118.187)",CA,90042,http://www.laparks.org/dos/parks/facility/arroyoSPk.htm,(213) 485-5054,14,34.104402,-118.187327
Parks,Elysian Park - Buena Vista Meadow Picnic Area,,,,Meadow,Rd,,,,,,,,"Los Angeles, CA 90012
(34.0764, -118.228)",CA,90012,http://www.laparks.org/dos/parks/facility/buenaVistaElysianPk.htm,(213) 485-5054,13,34.076408,-118.227999
Parks,Hermon / Arroyo Seco Park,5566,,,Via Marisol,,,,,,,,,"Los Angeles, CA 90042
(34.1044, -118.187)",CA,90042,http://www.laparks.org/dos/parks/facility/arroyoSPk.htm,(213) 485-5054,14,34.104402,-118.187327
Parks,Alvarado Terrace Park,,,,Malvern,Ave,,,,,Alvarado,Ter,,"Los Angeles, CA 90006
(34.045, -118.281)",CA,90006,http://www.laparks.org/dos/parks/facility/alvaradoTerrPk.htm,(213) 847-0641,1,34.04498,-118.28112
Public Computer Centers,MacArthur Park Community Center - Public Computer Center,2230,,W,6th,St,,,,,,,,"Los Angeles, CA 90057
(34.0602, -118.277)",CA,90057,http://www.laparks.org/btop/lynda.htm,(213) 368-0520,1,34.060233,-118.277016
Recreation Centers,MacArthur Park Community Center,2230,,W,6th,St,,,,,,,,"Los Angeles, CA 90057
(34.0602, -118.277)",CA,90057,http://www.laparks.org/dos/reccenter/facility/macarthurParkRC.htm,(213) 368-0520,1,34.060233,-118.277016
Senior Centers,Pan Pacific Senior Activity Center,141,,S,Gardner,St,,,,,,,,"Los Angeles, CA 90036
(34.0723, -118.354)",CA,90036,http://www.laparks.org/dos/senior/facility/panPacificSAC.htm,(323) 935-5705,4,34.072251,-118.353683
Parks,61st Street Pocket Park,139,,E,61,St,,,,,,,,"Los Angeles, CA 90003
(33.9845, -118.272)",CA,90003,,(310) 548-7675,9,33.984504,-118.272468
Outdoor Fitness Equipment,El Sereno North Park,4410,,,Garden Homes,Ave,,,,,,,,"Los Angeles, CA 90032
(34.0972, -118.168)",CA,90032,http://www.laparks.org/dos/parks/facility/elSerenoNorthPk.htm,(323) 225-3517,14,34.097182,-118.16843
Recreation Centers,Robertson Youth Center,1641,,,Preuss,Rd,,,,,,,,"Los Angeles, CA 90035
(34.0495, -118.385)",CA,90035,http://www.laparks.org/dos/reccenter/facility/robertsonRC.htm,(310) 278-5383,5,34.049457,-118.384807
Parks,Rosewood Gardens,7811,,W,Rosewood,Ave,,,,,,,,"Los Angeles, CA 90036
(34.0804, -118.361)",CA,90036,,(310) 548-7675,5,34.080368,-118.361288
Recreation Centers,Pan Pacific Park Recreation Complex,7600,,,Beverly,Blvd,,,,,,,,"Los Angeles, CA 90036
(34.0749, -118.355)",CA,90036,http://www.laparks.org/dos/reccenter/facility/panPacificRC.htm,(323) 939-8874,4,34.07487935,-118.3549473
Outdoor Fitness Equipment,Benny H. Potter West Adams Avenues Memorial Park,2413,,,2nd,Ave,,,,,,,,"Los Angeles, CA 90018
(34.035, -118.319)",CA,90018,http://www.laparks.org/dos/parks/facility/bennyHPotterPk.htm,(323) 373-9483,10,34.035039,-118.318677
Recreation Centers,Downey Youth Center,219,,S,Ave 18,,,,,,,,,"Los Angeles, CA 90031
(34.0709, -118.222)",CA,90031,http://www.laparks.org/dos/reccenter/facility/downeyRC.htm,(323) 227-7752,1,34.070938,-118.222326
Tennis Courts,Echo Park Tennis Courts,1632,,,Bellevue,Ave,,,,,,,,"Los Angeles, CA 90026
(34.0686, -118.261)",CA,90026,http://www.laparks.org/dos/reccenter/facility/echoParkRC.htm,(213) 250-3578,13,34.068609,-118.260597
Tennis Courts,South Park Tennis Courts,345,,E,51st,St,,,,,,,,"Los Angeles, CA 90011
(33.9966, -118.269)",CA,90011,http://www.laparks.org/dos/parks/facility/southPk.htm,(213) 847-6746,9,33.99664406,-118.268573
Swimming Pools - Year Round,Echo Park Indoor Pool,1419,,,Colton,St,,,,,,,,"Los Angeles, CA 90026
(34.0641, -118.259)",CA,90026,http://www.laparks.org/dos/aquatic/facility/echoParkPool.htm,(213) 481-2640,1,34.064109,-118.259046
Recreation Centers,Van Ness Recreation Center,5720,,,2nd,Ave,,,,,,,,"Los Angeles, CA 90043
(33.9908, -118.319)",CA,90043,http://www.laparks.com/dos/reccenter/facility/vanNessRC.htm,(323) 296-1559,8,33.99082417,-118.319119
Universally Accessible Playgrounds,Sycamore Grove Park,4702,,N,Figueroa,St,,,,,,,,"Los Angeles, CA 90042
(34.1019, -118.203)",CA,90042,http://www.laparks.org/dos/parks/facility/sycamorePk.htm,(323) 255-0370,1,34.1019,-118.202996
Outdoor Fitness Equipment,Julian C. Dixon Ave. Park / 48th Street Park,4800,,S,Hoover,St,,,,,,,,"Los Angeles, CA 90037
(33.9994, -118.287)",CA,90037,http://www.laparks.org/dos/parks/facility/48thStreetPk.htm,(323) 233-4772,9,33.99941769,-118.2869822
Parks,Griffith Park - Cedar Grove,,,,Vista del Valle,,,,,,,,,"Los Angeles, CA 90027
(34.1201, -118.282)",CA,90027,http://www.laparks.org/dos/parks/facility/cedarGrovePk.htm,(323) 666-5046,4,34.120101,-118.282408
Tennis Courts,Glen Alla Park Tennis Courts,4601,,,Alla,Rd,,,,,,,,"Los Angeles, CA 90292
(33.9834, -118.432)",CA,90292,http://www.laparks.org/dos/parks/facility/glenAllaPk.htm,(310) 396-1615,11,33.983388,-118.431679
Outdoor Fitness Equipment,Mar Vista Park,11430,,,Woodbine,Ave,,,,,,,,"Los Angeles, CA 90066
(34.0179, -118.429)",CA,90066,http://www.laparks.org/dos/reccenter/facility/marVistaRC.htm,(310) 398-5982,11,34.01785493,-118.4294632
Skate Parks,Rancho Cienega Skate Park,5001,,,Rodeo,Rd,,,,,,,,"Los Angeles, CA 90016
(34.0217, -118.352)",CA,90016,http://www.laparks.org/dos/parks/skateparks/ranchoSkatePk.htm,(323) 290-2663,10,34.02167021,-118.351823
Gardens,Exposition Park Rose Garden,701,,,State,Dr,,,,,,,,"Los Angeles, CA 90037
(34.0177, -118.286)",CA,90037,http://www.laparks.org/exporosegarden/rosegarden.htm,(213) 763-5397,9,34.017727,-118.286074
Senior Centers,Glassell Park Senior Citizen Center,3750,,N,Verdugo,Rd,,,,,,,,"Los Angeles, CA 90063
(34.1177, -118.233)",CA,90063,http://www.laparks.org/dos/senior/facility/glassellSCC.htm,(323) 550-8809,1,34.117669,-118.232573
Parks,Silver Lake Park,1850,,W,Silver Lake,Dr,,,,,,,,"Los Angeles, CA 90026
(34.0928, -118.267)",CA,90026,http://www.laparks.org/dos/reccenter/facility/silverLakeRC.htm,(323) 644-3946,13,34.092833,-118.266803
Parks,Martin Luther King Junior Park,3916,,S,Western,Ave,,,,,,,,"Los Angeles, CA 90062
(34.0139, -118.309)",CA,90062,http://www.laparks.org/dos/reccenter/facility/martinLKTRC.htm,(213) 847-0878,8,34.01394464,-118.3087893
Recreation Centers,Lafayette Community Center,625,,S,Lafayette Park,Pl,,,,,,,,"Los Angeles, CA 90057
(34.0621, -118.283)",CA,90057,http://www.laparks.org/dos/reccenter/facility/lafayetteMCC.htm,(213) 384-0562,10,34.06211618,-118.282875
Public Computer Centers,Seoul International Recreation Center - Public Computer Center,3250,,,San Marino,St,,,,,,,,"Los Angeles, CA 90006
(34.0544, -118.302)",CA,90006,http://www.laparks.org/btop/lynda.htm,(213) 383-7549,10,34.05435479,-118.3016258
Outdoor Fitness Equipment,Shatto Park,3191,,W,4th,St,,,,,,,,"Los Angeles, CA 90020
(34.0673, -118.289)",CA,90020,http://www.laparks.org/dos/reccenter/facility/shattoRC.htm,(213) 386-8877,13,34.067287,-118.289251
Parks,Rose Hill Park,3606,,N,Boundary,Ave,,,,,,,,"Los Angeles, CA 90032
(34.091, -118.193)",CA,90032,http://www.laparks.org/dos/parks/facility/roseHillPk.htm,(323) 225-0450,14,34.091016,-118.192926
Recreation Centers,South Los Angeles Sports Activity Center,7020,,S,Figueroa,St,,,,,,,,"Los Angeles, CA 90003
(33.9761, -118.282)",CA,90003,,(323) 758-8716,8,33.976134,-118.282328
Public Computer Centers,Jim Gilliam Recreation Center - Public Computer Center,4000,,S,La Brea,Ave,,,,,,,,"Los Angeles, CA 90008
(34.0123, -118.353)",CA,90008,http://www.laparks.org/btop/lynda.htm,(323) 291-5928,10,34.01227,-118.352773
Recreation Centers,Barnsdall Art Center,4800,,,Hollywood,Blvd,,,,,,,,"Los Angeles, CA 90027
(34.1015, -118.294)",CA,90027,http://www.laparks.org/dos/reccenter/facility/barnsdallArtPkRC.htm,(323) 660-4254,13,34.10151763,-118.29443
Recreation Centers,Algin Sutton Youth Center,8800,,S,Hoover,St,,,,,,,,"Los Angeles, CA 90044
(33.9578, -118.286)",CA,90044,http://www.laparks.org/dos/reccenter/facility/alginSuttonRC.htm,(323) 565-2541,8,33.957778,-118.285546
Swimming Pools - Summer,Westchester Pool,9100,,,Lincoln,Blvd,,,,,,,,"Los Angeles, CA 90045
(33.9574, -118.417)",CA,90045,http://www.laparks.org/dos/aquatic/facility/westchesterPool.htm,(310) 641-8734,11,33.95735123,-118.4166771
Recreation Centers,Martin Luther King Jr. Recreation Center,3916,,S,Western,Ave,,,,,,,,"Los Angeles, CA 90062
(34.0139, -118.309)",CA,90062,http://www.laparks.org/dos/reccenter/facility/martinLKTRC.htm,(213) 847-0878,8,34.01394464,-118.3087893
Dog Parks,Barrington Dog Park,333,,S,Barrington,Ave,,,,,,,,"Los Angeles, CA 90049
(34.0625, -118.468)",CA,90049,http://www.laparks.org/dos/parks/facility/dogparks/barringtonDogPk.htm,(310) 476-4866,11,34.062494,-118.467569
Public Computer Centers,Pecan Recreation Center - Public Computer Center,127,,S,Pecan,St,,,,,,,,"Los Angeles, CA 90033
(34.0465, -118.222)",CA,90033,http://www.laparks.org/btop/lynda.htm,(323) 262-2736,14,34.04652101,-118.2220261
Swimming Pools - Year Round,Venice High School Pool,2490,,,Walgrove,Ave,,,,,,,,"Los Angeles, CA 90066
(33.995, -118.445)",CA,90066,http://www.laparks.org/dos/aquatic/facility/venicePool.htm,(310) 575-8260,11,33.99504487,-118.4445569
Hiking Trails,Elysian Park,929,,,Academy,Rd,,,,,,,,"Los Angeles, CA 90012
(34.0794, -118.236)",CA,90012,http://www.laparks.org/dos/parks/facility/elysianPk.htm,(213) 485-5054,13,34.079411,-118.235668
Parks,Vernon Branch Library Pocket Park,4501,,S,Central,Ave,,,,,,,,"Los Angeles, CA 90011
(34.0029, -118.256)",CA,90011,,(310) 548-7675,9,34.002885,-118.256336
Swimming Pools - Year Round,Glassell Park Pool,3704,,,Verdugo,Rd,,,,,,,,"Los Angeles, CA 90065
(34.117, -118.233)",CA,90065,http://www.laparks.org/dos/aquatic/facility/glassellPool.htm,(323) 226-1670,1,34.117004,-118.233037
Parks,Rustic Canyon Park,,,,Sullivan Fire,Rd,,,,,,,,"Los Angeles, CA 90049
(34.0685, -118.51)",CA,90049,,(310) 836-1040,11,34.068454,-118.510444
Swimming Pools - Summer,Mar Vista Pool,11655,,,Palms,Blvd,,,,,,,,"Los Angeles, CA 90066
(34.0168, -118.429)",CA,90066,http://www.laparks.org/dos/aquatic/facility/marVistaPool.htm,(310) 390-2016,11,34.016834,-118.428747
Senior Centers,Jim Gilliam Senior Citizen Center,4000,,S,La Brea,Ave,,,,,,,,"Los Angeles, CA 90008
(34.0124, -118.353)",CA,90008,http://www.laparks.org/dos/senior/facility/jimGilliamSCC.htm,(323) 291-5928,10,34.012395,-118.353138
Recreation Centers,Central Park Recreation Center,1357,,E,22nd,St,,,,,,,,"Los Angeles, CA 90011
(34.0208, -118.251)",CA,90011,http://www.laparks.org/dos/reccenter/facility/centralParkRC.htm,(213) 485-4435,9,34.020754,-118.251107
Golf Courses,Wilson Golf Course,4730,,,Crystal Springs,Dr,,,,,,,,"Los Angeles, CA 90027
(34.1438, -118.29)",CA,90027,http://www.golf.lacity.org/cdp_wilson.htm,(323) 663-2555,4,34.143758,-118.289517
Parks,Griffith Park - Lake Hollywood Park,3160,,,Canyon,Dr,,,,,,,,"Los Angeles, CA 90027
(34.1268, -118.326)",CA,90027,http://www.laparks.org/dos/parks/facility/lakeHollywoodPk.htm,(323) 666-5046,4,34.126773,-118.326239
Public Computer Centers,Claude Pepper Senior Citizen Center - Public Computer Center,1726,,S,La Cienega,Blvd,,,,,,,,"Los Angeles, CA 90035
(34.0453, -118.376)",CA,90035,http://www.laparks.org/btop/lynda.htm,(310) 559-9677,10,34.045254,-118.376364
Senior Centers,James Slauson Senior Citizen Center,5306,,S,Compton,Ave,,,,,,,,"Los Angeles, CA 90011
(33.9946, -118.248)",CA,90011,http://www.laparks.org/dos/senior/facility/slausonSCC.htm,(323) 846-5392,9,33.99462127,-118.2476422
Recreation Centers,Eagle Rock Youth Center,1102,,,Eagle Vista,Dr,,,,,,,,"Los Angeles, CA 90041
(34.1436, -118.188)",CA,90041,http://www.laparks.org/dos/reccenter/facility/eagleRockRC.htm,(323) 341-5658,14,34.14363983,-118.1882212
Recreation Centers,Mar Vista Recreation Center,11430,,,Woodbine,Ave,,,,,,,,"Los Angeles, CA 90066
(34.018, -118.429)",CA,90066,http://www.laparks.org/dos/reccenter/facility/marVistaRC.htm,(310) 398-5982,11,34.017986,-118.428674
Senior Centers,Betty Hill Senior Citizen Center,3571,,S,Denker,Ave,,,,,,,,"Los Angeles, CA 90018
(34.0231, -118.304)",CA,90018,http://www.laparks.org/dos/senior/facility/bettyHillSCC.htm,(323) 733-1946,8,34.023118,-118.304486
Swimming Pools - Summer,Hansen Dam Aquatic Center,11798,,,Foothill,Blvd,,,,,,,,"Los Angeles, CA 91342
(34.2707, -118.389)",CA,91342,http://www.laparks.org/hansen/index.htm,(818) 899-3779,7,34.270672,-118.389353
Swimming Pools - Year Round,Hansen Dam Recreational Lake,11798,,,Foothill,Blvd,,,,,,,,"Los Angeles, CA 91342
(34.2706, -118.389)",CA,91342,http://www.laparks.org/hansen/index.htm,(818) 899-3779,7,34.270611,-118.389149
Swimming Pools - Year Round,Rancho Cienega - Celes King III Pool,5001,,,Rodeo,Rd,,,,,,,,"Los Angeles, CA 90016
(34.0221, -118.351)",CA,90016,http://www.laparks.org/dos/aquatic/facility/celesKingIIIPool.htm,(213) 847-3406,10,34.022129,-118.351389
